<?xml version="1.0" encoding="UTF-8"?>
<kml xmlns="http://www.opengis.net/kml/2.2">
  <Document>
    <name>bike_lanes_wishing_list</name>
    <Style id="line-9C27B0-4488-normal">
      <LineStyle>
        <color>ffb0279c</color>
        <width>4.488</width>
      </LineStyle>
    </Style>
    <Style id="line-9C27B0-4488-highlight">
      <LineStyle>
        <color>ffb0279c</color>
        <width>6.732</width>
      </LineStyle>
    </Style>
    <StyleMap id="line-9C27B0-4488">
      <Pair>
        <key>normal</key>
        <styleUrl>#line-9C27B0-4488-normal</styleUrl>
      </Pair>
      <Pair>
        <key>highlight</key>
        <styleUrl>#line-9C27B0-4488-highlight</styleUrl>
      </Pair>
    </StyleMap>
    <Placemark>
      <name>האר״י-מטודלה‎‎</name>
      <description><![CDATA[<br><br>fid: ]]></description>
      <styleUrl>#line-9C27B0-4488</styleUrl>
      <ExtendedData>
        <Data name="fid">
          <value/>
        </Data>
      </ExtendedData>
      <LineString>
        <tessellate>1</tessellate>
        <coordinates>
          35.2129516,31.7694575,0
          35.2133057,31.7709899,0
          35.2138206,31.7718382,0
          35.213653,31.772118,0
          35.2134344,31.7723125,0
          35.212873,31.772316,0
          35.212205,31.772109,0
          35.211724,31.77173,0
          35.21127,31.771478,0
          35.2104947,31.771446,0
          35.209735,31.771657,0
          35.2095076,31.7720844,0
          35.2096471,31.7724949,0
          35.2097759,31.7726773,0
          35.209719,31.773764,0
          35.209331,31.772859,0
          35.208464,31.772976,0
        </coordinates>
      </LineString>
    </Placemark>
    <Placemark>
      <name>אגרון-רמב״ן‎</name>
      <description><![CDATA[רחוב אגרון + החלק החד סטרי של רמב״ן<br><br>fid: ]]></description>
      <styleUrl>#line-9C27B0-4488</styleUrl>
      <ExtendedData>
        <Data name="fid">
          <value/>
        </Data>
      </ExtendedData>
      <LineString>
        <tessellate>1</tessellate>
        <coordinates>
          35.223003,31.7779045,0
          35.222051,31.777832,0
          35.221382,31.777574,0
          35.220884,31.777244,0
          35.218599,31.775993,0
          35.2177781,31.7754168,0
          35.217165,31.775084,0
          35.215232,31.774712,0
        </coordinates>
      </LineString>
    </Placemark>
    <Placemark>
      <name>קרן היסוד-קינג ג׳ורג׳</name>
      <description><![CDATA[<br><br>fid: ]]></description>
      <styleUrl>#line-9C27B0-4488</styleUrl>
      <ExtendedData>
        <Data name="fid">
          <value/>
        </Data>
      </ExtendedData>
      <LineString>
        <tessellate>1</tessellate>
        <coordinates>
          35.223095,31.771548,0
          35.219729,31.773427,0
          35.2181619,31.7747687,0
          35.217895,31.775249,0
          35.216752,31.776417,0
          35.21586,31.777959,0
          35.2157752,31.77854,0
          35.2157162,31.7793563,0
          35.2157108,31.7803732,0
          35.216128,31.781094,0
          35.217807,31.783177,0
        </coordinates>
      </LineString>
    </Placemark>
    <Placemark>
      <name>דרך חברון</name>
      <description><![CDATA[<br><br>fid: ]]></description>
      <styleUrl>#line-9C27B0-4488</styleUrl>
      <ExtendedData>
        <Data name="fid">
          <value/>
        </Data>
      </ExtendedData>
      <LineString>
        <tessellate>1</tessellate>
        <coordinates>
          35.2024364,31.7320743,0
          35.2043775,31.7318834,0
          35.2059752,31.7313823,0
          35.207454,31.732862,0
          35.209096,31.73404,0
          35.2114227,31.7377685,0
          35.214143,31.74257,0
          35.216428,31.745084,0
          35.218431,31.749213,0
          35.2195766,31.7517826,0
          35.221861,31.756267,0
          35.2246,31.760863,0
          35.2253702,31.7632041,0
          35.2254131,31.7654298,0
          35.2255847,31.7665609,0
          35.2260138,31.7673088,0
          35.2247103,31.7673089,0
          35.2243938,31.7688048,0
          35.2244193,31.7689931,0
          35.22432,31.769506,0
        </coordinates>
      </LineString>
    </Placemark>
    <Placemark>
      <name>ז׳בוטינסקי</name>
      <description><![CDATA[<br><br>fid: ]]></description>
      <styleUrl>#line-9C27B0-4488</styleUrl>
      <ExtendedData>
        <Data name="fid">
          <value/>
        </Data>
      </ExtendedData>
      <LineString>
        <tessellate>1</tessellate>
        <coordinates>
          35.223095,31.771548,0
          35.2220827,31.771263,0
          35.221324,31.770976,0
          35.220478,31.771051,0
          35.217292,31.771094,0
          35.216373,31.771097,0
          35.216045,31.771028,0
          35.214768,31.770555,0
          35.214262,31.770391,0
          35.213118,31.76935,0
          35.2129516,31.7694575,0
        </coordinates>
      </LineString>
    </Placemark>
    <Placemark>
      <name>ג׳ורג׳ אדם סמית׳ - לח״י‎‎ - צ׳רצ׳יל</name>
      <description><![CDATA[חיבור בר לב לקמפוס הר הצופים<br><br>fid: ]]></description>
      <styleUrl>#line-9C27B0-4488</styleUrl>
      <ExtendedData>
        <Data name="fid">
          <value/>
        </Data>
      </ExtendedData>
      <LineString>
        <tessellate>1</tessellate>
        <coordinates>
          35.23334,31.8004614,0
          35.236096,31.799502,0
          35.2359957,31.7991352,0
          35.2362103,31.7987157,0
          35.2367896,31.7983054,0
          35.2373153,31.798009,0
          35.237841,31.7984968,0
          35.238532,31.798169,0
          35.23901,31.798214,0
          35.239366,31.798093,0
          35.2409692,31.7969271,0
          35.241802,31.796259,0
          35.2427603,31.7950685,0
        </coordinates>
      </LineString>
    </Placemark>
    <Placemark>
      <name>הרצל‎</name>
      <description><![CDATA[<br><br>fid: ]]></description>
      <styleUrl>#line-9C27B0-4488</styleUrl>
      <ExtendedData>
        <Data name="fid">
          <value/>
        </Data>
      </ExtendedData>
      <LineString>
        <tessellate>1</tessellate>
        <coordinates>
          35.199665,31.787187,0
          35.1960793,31.7839454,0
          35.1958096,31.7836511,0
          35.1948561,31.7832518,0
          35.1937852,31.7829201,0
          35.192658,31.7827,0
          35.1910889,31.7827447,0
          35.1902016,31.7827501,0
          35.1899019,31.782635,0
          35.1896559,31.7824788,0
          35.1894356,31.7822191,0
          35.1880866,31.7801361,0
          35.1875616,31.7795141,0
          35.1871159,31.7789602,0
          35.1867772,31.778576,0
          35.1856186,31.7773966,0
          35.1850392,31.7768129,0
          35.1844491,31.7761288,0
          35.1834084,31.7746786,0
          35.1822175,31.7726538,0
          35.1814021,31.7709663,0
          35.1809515,31.7699539,0
          35.1805009,31.7694157,0
          35.1797316,31.7688761,0
          35.1788006,31.7685371,0
          35.1781835,31.7686222,0
        </coordinates>
      </LineString>
    </Placemark>
    <Placemark>
      <name>בן זכאי-יהודה הנשיא</name>
      <description><![CDATA[<br><br>fid: ]]></description>
      <styleUrl>#line-9C27B0-4488</styleUrl>
      <ExtendedData>
        <Data name="fid">
          <value/>
        </Data>
      </ExtendedData>
      <LineString>
        <tessellate>1</tessellate>
        <coordinates>
          35.215135,31.759318,0
          35.2147725,31.7591967,0
          35.2142039,31.7589686,0
          35.212097,31.759281,0
          35.209051,31.759031,0
          35.207944,31.75876,0
          35.2067688,31.7578648,0
          35.204507,31.755793,0
          35.203937,31.755347,0
          35.203143,31.755177,0
          35.2022412,31.7552831,0
          35.200768,31.756135,0
          35.200012,31.756347,0
          35.199406,31.756257,0
          35.1984653,31.7558698,0
        </coordinates>
      </LineString>
    </Placemark>
    <Placemark>
      <name>רחל אמנו-חזקיהו המלך-דוסטאי</name>
      <description><![CDATA[<br><br>fid: ]]></description>
      <styleUrl>#line-9C27B0-4488</styleUrl>
      <ExtendedData>
        <Data name="fid">
          <value/>
        </Data>
      </ExtendedData>
      <LineString>
        <tessellate>1</tessellate>
        <coordinates>
          35.218727,31.763165,0
          35.2169998,31.7634294,0
          35.2157338,31.7636118,0
          35.2149828,31.7636301,0
          35.213073,31.7626996,0
          35.2124722,31.7625172,0
          35.2106054,31.7616597,0
          35.2092321,31.7613131,0
          35.208288,31.7596346,0
          35.2079661,31.759142,0
          35.208148,31.758832,0
        </coordinates>
      </LineString>
    </Placemark>
    <Placemark>
      <name>בר לב</name>
      <description><![CDATA[<br><br>fid: ]]></description>
      <styleUrl>#line-9C27B0-4488</styleUrl>
      <ExtendedData>
        <Data name="fid">
          <value/>
        </Data>
      </ExtendedData>
      <LineString>
        <tessellate>1</tessellate>
        <coordinates>
          35.223003,31.7779045,0
          35.223249,31.77829,0
          35.225199,31.778896,0
          35.225658,31.77926,0
          35.227666,31.780275,0
          35.228114,31.7814,0
          35.2275947,31.7826526,0
          35.227189,31.783159,0
          35.2273587,31.7848232,0
          35.226688,31.788527,0
          35.226599,31.792872,0
          35.2265433,31.7938332,0
          35.2283887,31.7956387,0
          35.232317,31.798925,0
          35.2336672,31.8012557,0
          35.2345256,31.8030064,0
          35.235064,31.804728,0
          35.2355984,31.8081124,0
        </coordinates>
      </LineString>
    </Placemark>
    <Placemark>
      <name>צבי יהודה‎‎</name>
      <description><![CDATA[<br><br>fid: ]]></description>
      <styleUrl>#line-9C27B0-4488</styleUrl>
      <ExtendedData>
        <Data name="fid">
          <value/>
        </Data>
      </ExtendedData>
      <LineString>
        <tessellate>1</tessellate>
        <coordinates>
          35.1991035,31.7866825,0
          35.1976592,31.7871734,0
          35.196797,31.7874552,0
          35.1961357,31.7875473,0
          35.195122,31.787616,0
          35.192109,31.787712,0
        </coordinates>
      </LineString>
    </Placemark>
    <Placemark>
      <name>הברון הירש-אליעזר הלוי‎</name>
      <description><![CDATA[<br><br>fid: ]]></description>
      <styleUrl>#line-9C27B0-4488</styleUrl>
      <ExtendedData>
        <Data name="fid">
          <value/>
        </Data>
      </ExtendedData>
      <LineString>
        <tessellate>1</tessellate>
        <coordinates>
          35.1948025,31.7832427,0
          35.194681,31.7835407,0
          35.1942196,31.7838599,0
          35.1933506,31.7846533,0
          35.1932755,31.7847901,0
          35.1933828,31.785693,0
          35.1936243,31.7865383,0
          35.193796,31.7870399,0
          35.1930342,31.7873499,0
          35.19298,31.787607,0
          35.1929707,31.7876932,0
        </coordinates>
      </LineString>
    </Placemark>
    <Placemark>
      <name>אלעזר המודעי-כובשי קטמון</name>
      <description><![CDATA[<br><br>fid: ]]></description>
      <styleUrl>#line-9C27B0-4488</styleUrl>
      <ExtendedData>
        <Data name="fid">
          <value/>
        </Data>
      </ExtendedData>
      <LineString>
        <tessellate>1</tessellate>
        <coordinates>
          35.210085,31.767079,0
          35.2103631,31.7664943,0
          35.210612,31.766075,0
          35.211847,31.764821,0
          35.21238,31.763963,0
          35.213137,31.762874,0
          35.214386,31.761293,0
          35.215135,31.759318,0
          35.215297,31.759248,0
        </coordinates>
      </LineString>
    </Placemark>
    <Placemark>
      <name>הפלמ״ח</name>
      <description><![CDATA[<br><br>fid: ]]></description>
      <styleUrl>#line-9C27B0-4488</styleUrl>
      <ExtendedData>
        <Data name="fid">
          <value/>
        </Data>
      </ExtendedData>
      <LineString>
        <tessellate>1</tessellate>
        <coordinates>
          35.213802,31.768786,0
          35.212222,31.767702,0
          35.2113134,31.76734,0
          35.2097256,31.7669204,0
          35.2089209,31.7661451,0
          35.208022,31.764751,0
          35.2070004,31.7641474,0
          35.204532,31.763531,0
        </coordinates>
      </LineString>
    </Placemark>
    <Placemark>
      <name>בזק-בייט</name>
      <description><![CDATA[חיבור בין צומת ניות להרצל דרך שערי צדק<br><br>fid: ]]></description>
      <styleUrl>#line-9C27B0-4488</styleUrl>
      <ExtendedData>
        <Data name="fid">
          <value/>
        </Data>
      </ExtendedData>
      <LineString>
        <tessellate>1</tessellate>
        <coordinates>
          35.202938,31.767052,0
          35.202062,31.766124,0
          35.2005231,31.7657463,0
          35.198968,31.765673,0
          35.1905882,31.7679903,0
          35.1892364,31.7712192,0
          35.1878845,31.7726421,0
          35.186305,31.774112,0
          35.184362,31.775882,0
        </coordinates>
      </LineString>
    </Placemark>
    <Placemark>
      <name>ירמיהו-בר אילן-לוי אשכול</name>
      <description><![CDATA[<br><br>fid: ]]></description>
      <styleUrl>#line-9C27B0-4488</styleUrl>
      <ExtendedData>
        <Data name="fid">
          <value/>
        </Data>
      </ExtendedData>
      <LineString>
        <tessellate>1</tessellate>
        <coordinates>
          35.23281,31.799729,0
          35.2317547,31.7999716,0
          35.2297377,31.800081,0
          35.227692,31.800213,0
          35.224934,31.799308,0
          35.223587,31.79866,0
          35.222851,31.797886,0
          35.222039,31.796498,0
          35.219864,31.795715,0
          35.216893,31.794214,0
          35.214291,31.793329,0
          35.213061,31.792605,0
          35.211895,31.792227,0
          35.210916,31.792197,0
          35.2088809,31.7925307,0
          35.2076792,31.7922754,0
          35.2063918,31.7918377,0
          35.2043747,31.7924578,0
          35.2038168,31.7919836,0
          35.2031731,31.7911081,0
          35.2024865,31.7908893,0
          35.2012419,31.7908528,0
          35.2005553,31.7902327,0
          35.1998257,31.7893937,0
        </coordinates>
      </LineString>
    </Placemark>
    <Placemark>
      <name>גולדה-שמואל הנביא</name>
      <description><![CDATA[<br><br>fid: ]]></description>
      <styleUrl>#line-9C27B0-4488</styleUrl>
      <ExtendedData>
        <Data name="fid">
          <value/>
        </Data>
      </ExtendedData>
      <LineString>
        <tessellate>1</tessellate>
        <coordinates>
          35.204747,31.802203,0
          35.207461,31.8004754,0
          35.2099072,31.7995271,0
          35.2126538,31.799673,0
          35.214085,31.800182,0
          35.215873,31.799776,0
          35.2173315,31.7984329,0
          35.219864,31.795715,0
          35.221775,31.793625,0
          35.223149,31.792683,0
          35.2250992,31.7898975,0
          35.227002,31.787171,0
        </coordinates>
      </LineString>
    </Placemark>
    <Placemark>
      <name>שטראוס-יחזקאל</name>
      <description><![CDATA[<br><br>fid: ]]></description>
      <styleUrl>#line-9C27B0-4488</styleUrl>
      <ExtendedData>
        <Data name="fid">
          <value/>
        </Data>
      </ExtendedData>
      <LineString>
        <tessellate>1</tessellate>
        <coordinates>
          35.217807,31.783177,0
          35.2186128,31.7841809,0
          35.2189346,31.78533,0
          35.218999,31.7860231,0
          35.2185913,31.7878288,0
          35.218434,31.78818,0
          35.218647,31.789571,0
          35.2188703,31.7899263,0
          35.2213164,31.7929174,0
          35.221775,31.793625,0
        </coordinates>
      </LineString>
    </Placemark>
    <Placemark>
      <name>בגין (גבעת רם)</name>
      <description><![CDATA[<br><br>fid: ]]></description>
      <styleUrl>#line-9C27B0-4488</styleUrl>
      <ExtendedData>
        <Data name="fid">
          <value/>
        </Data>
      </ExtendedData>
      <LineString>
        <tessellate>1</tessellate>
        <coordinates>
          35.197846,31.781807,0
          35.196668,31.781404,0
          35.195056,31.779467,0
          35.194374,31.778453,0
          35.1941069,31.7776363,0
          35.1939267,31.776483,0
          35.1939938,31.7755845,0
          35.1942781,31.7738813,0
          35.1945275,31.7729851,0
          35.195168,31.770188,0
          35.195371,31.768597,0
          35.1958257,31.7678498,0
          35.1960081,31.7675579,0
          35.1959625,31.7665044,0
        </coordinates>
      </LineString>
    </Placemark>
    <Placemark>
      <name>גולומב</name>
      <description><![CDATA[השלמת גולומב<br><br>fid: ]]></description>
      <styleUrl>#line-9C27B0-4488</styleUrl>
      <ExtendedData>
        <Data name="fid">
          <value/>
        </Data>
      </ExtendedData>
      <LineString>
        <tessellate>1</tessellate>
        <coordinates>
          35.183692,31.756121,0
          35.1769996,31.7617482,0
          35.1762701,31.761876,0
          35.1757765,31.7616023,0
          35.1753688,31.7613651,0
          35.174523,31.761218,0
          35.1735879,31.7614563,0
          35.172505,31.761819,0
          35.172291,31.762083,0
        </coordinates>
      </LineString>
    </Placemark>
    <Placemark>
      <name>קוליץ</name>
      <description><![CDATA[השלמת קוליץ<br><br>fid: ]]></description>
      <styleUrl>#line-9C27B0-4488</styleUrl>
      <ExtendedData>
        <Data name="fid">
          <value/>
        </Data>
      </ExtendedData>
      <LineString>
        <tessellate>1</tessellate>
        <coordinates>
          35.18318,31.756519,0
          35.182025,31.7562018,0
          35.181553,31.755545,0
          35.1793428,31.7514032,0
          35.178255,31.750591,0
        </coordinates>
      </LineString>
    </Placemark>
    <Placemark>
      <name>פייר קניג</name>
      <description><![CDATA[<br><br>fid: ]]></description>
      <styleUrl>#line-9C27B0-4488</styleUrl>
      <ExtendedData>
        <Data name="fid">
          <value/>
        </Data>
      </ExtendedData>
      <LineString>
        <tessellate>1</tessellate>
        <coordinates>
          35.215297,31.759248,0
          35.2148212,31.7567295,0
          35.2143706,31.7545035,0
          35.2140702,31.7530438,0
          35.2138127,31.7516571,0
          35.213683,31.750748,0
          35.213514,31.750148,0
          35.212975,31.748422,0
          35.2128042,31.7475151,0
          35.2125467,31.7473327,0
          35.212663,31.746741,0
        </coordinates>
      </LineString>
    </Placemark>
    <Placemark>
      <name>שמגר-אוהל יהושוע-שפע חיים</name>
      <description><![CDATA[<br><br>fid: ]]></description>
      <styleUrl>#line-9C27B0-4488</styleUrl>
      <ExtendedData>
        <Data name="fid">
          <value/>
        </Data>
      </ExtendedData>
      <LineString>
        <tessellate>1</tessellate>
        <coordinates>
          35.205289,31.788621,0
          35.206334,31.789399,0
          35.208286,31.790945,0
          35.208625,31.791643,0
          35.208513,31.792451,0
          35.208297,31.794146,0
          35.207556,31.795818,0
          35.2081204,31.7959526,0
          35.209202,31.795933,0
          35.211909,31.795728,0
          35.212144,31.795921,0
          35.213593,31.799928,0
          35.213645,31.800098,0
        </coordinates>
      </LineString>
    </Placemark>
    <Placemark>
      <name>בצלאל-רבין</name>
      <description><![CDATA[<br><br>fid: ]]></description>
      <styleUrl>#line-9C27B0-4488</styleUrl>
      <ExtendedData>
        <Data name="fid">
          <value/>
        </Data>
      </ExtendedData>
      <LineString>
        <tessellate>1</tessellate>
        <coordinates>
          35.216128,31.781094,0
          35.2148014,31.7808507,0
          35.2138573,31.7807048,0
          35.2108317,31.7817992,0
          35.2087718,31.7829301,0
          35.2076345,31.7829666,0
          35.2063256,31.7827659,0
          35.2044374,31.7821093,0
          35.2036005,31.7820546,0
          35.202592,31.7824194,0
          35.1982048,31.7858435,0
        </coordinates>
      </LineString>
    </Placemark>
    <Placemark>
      <name>יהודה-ינובסקי‎</name>
      <description><![CDATA[<br><br>fid: ]]></description>
      <styleUrl>#line-9C27B0-4488</styleUrl>
      <ExtendedData>
        <Data name="fid">
          <value/>
        </Data>
      </ExtendedData>
      <LineString>
        <tessellate>1</tessellate>
        <coordinates>
          35.232064,31.754087,0
          35.2296787,31.7544155,0
          35.227407,31.7551916,0
          35.2262964,31.7556045,0
          35.225057,31.7557256,0
          35.2225782,31.7560041,0
          35.2207865,31.7568525,0
          35.2188446,31.7573725,0
          35.2163876,31.7579837,0
          35.215086,31.758,0
        </coordinates>
      </LineString>
    </Placemark>
    <Placemark>
      <name>דוד המלך </name>
      <description><![CDATA[השלמת השביל לאורך הצד המזרחי<br><br>fid: ]]></description>
      <styleUrl>#line-9C27B0-4488</styleUrl>
      <ExtendedData>
        <Data name="fid">
          <value/>
        </Data>
      </ExtendedData>
      <LineString>
        <tessellate>1</tessellate>
        <coordinates>
          35.222396,31.773546,0
          35.222013,31.774944,0
          35.2221812,31.7758586,0
          35.2226318,31.7769895,0
          35.223003,31.7779045,0
        </coordinates>
      </LineString>
    </Placemark>
    <Placemark>
      <name>פת</name>
      <description><![CDATA[<br><br>fid: ]]></description>
      <styleUrl>#line-9C27B0-4488</styleUrl>
      <ExtendedData>
        <Data name="fid">
          <value/>
        </Data>
      </ExtendedData>
      <LineString>
        <tessellate>1</tessellate>
        <coordinates>
          35.205433,31.749689,0
          35.205021,31.750633,0
          35.203583,31.7507515,0
          35.2022526,31.7511438,0
          35.2008793,31.7520059,0
          35.1998869,31.7531372,0
          35.199484,31.753602,0
          35.1993397,31.7545421,0
          35.198637,31.755614,0
          35.1984439,31.7558877,0
          35.1974085,31.7573793,0
          35.19711,31.757506,0
        </coordinates>
      </LineString>
    </Placemark>
    <Placemark>
      <name>אוסישקין-רד״ק-מולכו</name>
      <description><![CDATA[<br><br>fid: ]]></description>
      <styleUrl>#line-9C27B0-4488</styleUrl>
      <ExtendedData>
        <Data name="fid">
          <value/>
        </Data>
      </ExtendedData>
      <LineString>
        <tessellate>1</tessellate>
        <coordinates>
          35.211883,31.781459,0
          35.2122833,31.7794943,0
          35.212395,31.779119,0
          35.2125408,31.7775334,0
          35.2126588,31.776822,0
          35.212921,31.774949,0
          35.213027,31.773816,0
          35.213962,31.773222,0
          35.2145257,31.7729639,0
          35.215229,31.772322,0
          35.215334,31.772151,0
          35.215281,31.771026,0
          35.215285,31.77073,0
        </coordinates>
      </LineString>
    </Placemark>
  </Document>
</kml>
