{
"type": "FeatureCollection",
"name": "construction",
"crs": { "type": "name", "properties": { "name": "urn:ogc:def:crs:OGC:1.3:CRS84" } },
"features": [
{ "type": "Feature", "properties": { "Name": "" }, "geometry": { "type": "MultiLineString", "coordinates": [ [ [ 35.191148, 31.749103, 0.0 ], [ 35.191204, 31.749127, 0.0 ], [ 35.191254, 31.749149, 0.0 ], [ 35.191374, 31.749162, 0.0 ], [ 35.191512, 31.749174, 0.0 ], [ 35.191702, 31.749196, 0.0 ], [ 35.192044, 31.749242, 0.0 ], [ 35.192184, 31.749276, 0.0 ], [ 35.192306, 31.749305, 0.0 ], [ 35.192377, 31.749327, 0.0 ], [ 35.192411, 31.749347, 0.0 ], [ 35.192463, 31.74937, 0.0 ], [ 35.192501, 31.749387, 0.0 ] ] ] } },
{ "type": "Feature", "properties": { "Name": "" }, "geometry": { "type": "MultiLineString", "coordinates": [ [ [ 35.192956, 31.749508, 0.0 ], [ 35.193021, 31.749499, 0.0 ] ] ] } },
{ "type": "Feature", "properties": { "Name": "" }, "geometry": { "type": "MultiLineString", "coordinates": [ [ [ 35.193073, 31.749512, 0.0 ], [ 35.193098, 31.749528, 0.0 ], [ 35.193121, 31.749546, 0.0 ] ] ] } },
{ "type": "Feature", "properties": { "Name": "" }, "geometry": { "type": "MultiLineString", "coordinates": [ [ [ 35.239429, 31.800993, 0.0 ], [ 35.23931, 31.800999, 0.0 ], [ 35.239195, 31.800989, 0.0 ], [ 35.239078, 31.800976, 0.0 ] ] ] } },
{ "type": "Feature", "properties": { "Name": "" }, "geometry": { "type": "MultiLineString", "coordinates": [ [ [ 35.192503, 31.749388, 0.0 ], [ 35.192503, 31.749387, 0.0 ], [ 35.192534, 31.749392, 0.0 ], [ 35.192618, 31.749392, 0.0 ], [ 35.192772, 31.74939, 0.0 ], [ 35.192829, 31.749409, 0.0 ], [ 35.192887, 31.749447, 0.0 ], [ 35.19293, 31.749502, 0.0 ], [ 35.192951, 31.749506, 0.0 ] ] ] } },
{ "type": "Feature", "properties": { "Name": "" }, "geometry": { "type": "MultiLineString", "coordinates": [ [ [ 35.229875, 31.754292, 0.0 ], [ 35.231154, 31.75416, 0.0 ] ] ] } },
{ "type": "Feature", "properties": { "Name": "" }, "geometry": { "type": "MultiLineString", "coordinates": [ [ [ 35.228427, 31.754606, 0.0 ], [ 35.228594, 31.754562, 0.0 ], [ 35.228889, 31.754455, 0.0 ], [ 35.229668, 31.754306, 0.0 ] ] ] } },
{ "type": "Feature", "properties": { "Name": "" }, "geometry": { "type": "MultiLineString", "coordinates": [ [ [ 35.202513, 31.732245, 0.0 ], [ 35.202466, 31.732292, 0.0 ] ] ] } },
{ "type": "Feature", "properties": { "Name": "" }, "geometry": { "type": "MultiLineString", "coordinates": [ [ [ 35.202466, 31.732294, 0.0 ], [ 35.202445, 31.732309, 0.0 ], [ 35.202384, 31.732288, 0.0 ], [ 35.202299, 31.732273, 0.0 ], [ 35.202174, 31.732279, 0.0 ], [ 35.202152, 31.732285, 0.0 ], [ 35.20215, 31.7323, 0.0 ], [ 35.202161, 31.732306, 0.0 ], [ 35.202259, 31.732303, 0.0 ], [ 35.202354, 31.732306, 0.0 ], [ 35.202411, 31.732322, 0.0 ], [ 35.202455, 31.732359, 0.0 ], [ 35.202474, 31.732387, 0.0 ], [ 35.202494, 31.732464, 0.0 ], [ 35.202524, 31.732583, 0.0 ], [ 35.202592, 31.732839, 0.0 ], [ 35.20264, 31.733002, 0.0 ], [ 35.202684, 31.733211, 0.0 ], [ 35.202709, 31.733375, 0.0 ], [ 35.202736, 31.733553, 0.0 ], [ 35.202754, 31.733742, 0.0 ], [ 35.202761, 31.733938, 0.0 ], [ 35.202762, 31.734042, 0.0 ], [ 35.202772, 31.734319, 0.0 ], [ 35.202774, 31.734428, 0.0 ], [ 35.202796, 31.734509, 0.0 ], [ 35.202809, 31.734579, 0.0 ], [ 35.202821, 31.734711, 0.0 ], [ 35.202834, 31.734818, 0.0 ], [ 35.202821, 31.73495, 0.0 ], [ 35.202812, 31.735043, 0.0 ], [ 35.202779, 31.735192, 0.0 ], [ 35.202734, 31.735382, 0.0 ], [ 35.202688, 31.735595, 0.0 ], [ 35.202665, 31.735814, 0.0 ], [ 35.202644, 31.73598, 0.0 ], [ 35.20262, 31.736071, 0.0 ], [ 35.202578, 31.736186, 0.0 ], [ 35.202555, 31.736277, 0.0 ], [ 35.202516, 31.73648, 0.0 ], [ 35.202477, 31.736683, 0.0 ], [ 35.20245, 31.736853, 0.0 ], [ 35.202419, 31.736995, 0.0 ], [ 35.202391, 31.737158, 0.0 ], [ 35.202358, 31.737315, 0.0 ], [ 35.202329, 31.737432, 0.0 ], [ 35.202267, 31.737634, 0.0 ], [ 35.202227, 31.737772, 0.0 ], [ 35.202164, 31.737935, 0.0 ], [ 35.202115, 31.738057, 0.0 ], [ 35.202048, 31.738227, 0.0 ], [ 35.201978, 31.738381, 0.0 ], [ 35.201912, 31.73851, 0.0 ], [ 35.201761, 31.738798, 0.0 ], [ 35.201689, 31.73892, 0.0 ], [ 35.201582, 31.739091, 0.0 ], [ 35.201458, 31.739271, 0.0 ], [ 35.201311, 31.739487, 0.0 ], [ 35.201155, 31.739716, 0.0 ], [ 35.201091, 31.739816, 0.0 ], [ 35.200959, 31.740008, 0.0 ], [ 35.200919, 31.740081, 0.0 ], [ 35.200918, 31.740188, 0.0 ] ] ] } },
{ "type": "Feature", "properties": { "Name": "" }, "geometry": { "type": "MultiLineString", "coordinates": [ [ [ 35.19838, 31.785873, 0.0 ], [ 35.198354, 31.785938, 0.0 ], [ 35.198373, 31.78601, 0.0 ], [ 35.198516, 31.786178, 0.0 ], [ 35.1987, 31.786373, 0.0 ], [ 35.19877, 31.786418, 0.0 ], [ 35.198823, 31.786433, 0.0 ] ] ] } },
{ "type": "Feature", "properties": { "Name": "" }, "geometry": { "type": "MultiLineString", "coordinates": [ [ [ 35.198884, 31.786523, 0.0 ], [ 35.199062, 31.786708, 0.0 ] ] ] } },
{ "type": "Feature", "properties": { "Name": "" }, "geometry": { "type": "MultiLineString", "coordinates": [ [ [ 35.199122, 31.78675, 0.0 ], [ 35.199179, 31.786752, 0.0 ] ] ] } },
{ "type": "Feature", "properties": { "Name": "" }, "geometry": { "type": "MultiLineString", "coordinates": [ [ [ 35.215122, 31.760789, 0.0 ], [ 35.215197, 31.760754, 0.0 ] ] ] } },
{ "type": "Feature", "properties": { "Name": "" }, "geometry": { "type": "MultiLineString", "coordinates": [ [ [ 35.215197, 31.760754, 0.0 ], [ 35.215814, 31.760471, 0.0 ] ] ] } },
{ "type": "Feature", "properties": { "Name": "" }, "geometry": { "type": "MultiLineString", "coordinates": [ [ [ 35.214603, 31.761068, 0.0 ], [ 35.21462, 31.761047, 0.0 ], [ 35.215051, 31.760821, 0.0 ], [ 35.215122, 31.760789, 0.0 ] ] ] } },
{ "type": "Feature", "properties": { "Name": "" }, "geometry": { "type": "MultiLineString", "coordinates": [ [ [ 35.19954, 31.786376, 0.0 ], [ 35.199327, 31.786547, 0.0 ], [ 35.199233, 31.786633, 0.0 ], [ 35.199209, 31.786696, 0.0 ] ] ] } },
{ "type": "Feature", "properties": { "Name": "" }, "geometry": { "type": "MultiLineString", "coordinates": [ [ [ 35.200421, 31.785884 ], [ 35.200474, 31.785878 ], [ 35.200535, 31.785881 ], [ 35.20058, 31.785882 ], [ 35.200589, 31.78588 ] ], [ [ 35.20042, 31.785884 ], [ 35.20034, 31.785895 ], [ 35.200156, 31.785987 ], [ 35.199926, 31.786133 ], [ 35.199802, 31.786206 ] ] ] } },
{ "type": "Feature", "properties": { "Name": "" }, "geometry": { "type": "MultiLineString", "coordinates": [ [ [ 35.200589, 31.785881, 0.0 ], [ 35.200614, 31.785831, 0.0 ] ] ] } },
{ "type": "Feature", "properties": { "Name": "" }, "geometry": { "type": "MultiLineString", "coordinates": [ [ [ 35.200693, 31.785759, 0.0 ], [ 35.200895, 31.785598, 0.0 ] ] ] } },
{ "type": "Feature", "properties": { "Name": "" }, "geometry": { "type": "MultiLineString", "coordinates": [ [ [ 35.20145, 31.787542, 0.0 ], [ 35.201728, 31.787517, 0.0 ] ] ] } },
{ "type": "Feature", "properties": { "Name": "" }, "geometry": { "type": "MultiLineString", "coordinates": [ [ [ 35.206117, 31.765986, 0.0 ], [ 35.206109, 31.766087, 0.0 ] ] ] } },
{ "type": "Feature", "properties": { "Name": "" }, "geometry": { "type": "MultiLineString", "coordinates": [ [ [ 35.206109, 31.766094, 0.0 ], [ 35.206104, 31.766117, 0.0 ], [ 35.206087, 31.766145, 0.0 ], [ 35.20608, 31.766199, 0.0 ], [ 35.206067, 31.766298, 0.0 ], [ 35.206081, 31.766338, 0.0 ], [ 35.20607, 31.766407, 0.0 ], [ 35.206052, 31.766554, 0.0 ], [ 35.206036, 31.766726, 0.0 ], [ 35.206036, 31.766903, 0.0 ], [ 35.206082, 31.767192, 0.0 ], [ 35.206095, 31.7673, 0.0 ], [ 35.206133, 31.767406, 0.0 ] ] ] } },
{ "type": "Feature", "properties": { "Name": "" }, "geometry": { "type": "MultiLineString", "coordinates": [ [ [ 35.206133, 31.767406, 0.0 ], [ 35.20617, 31.767508, 0.0 ], [ 35.206305, 31.767762, 0.0 ], [ 35.206393, 31.767894, 0.0 ], [ 35.206468, 31.767983, 0.0 ], [ 35.206554, 31.76802, 0.0 ], [ 35.206691, 31.768125, 0.0 ], [ 35.206711, 31.768181, 0.0 ], [ 35.206719, 31.768185, 0.0 ] ] ] } },
{ "type": "Feature", "properties": { "Name": "" }, "geometry": { "type": "MultiLineString", "coordinates": [ [ [ 35.201213, 31.775823, 0.0 ], [ 35.20122, 31.775784, 0.0 ], [ 35.201225, 31.775772, 0.0 ], [ 35.201253, 31.775777, 0.0 ], [ 35.201267, 31.775782, 0.0 ] ] ] } },
{ "type": "Feature", "properties": { "Name": "" }, "geometry": { "type": "MultiLineString", "coordinates": [ [ [ 35.201267, 31.775782, 0.0 ], [ 35.201343, 31.775806, 0.0 ] ] ] } },
{ "type": "Feature", "properties": { "Name": "" }, "geometry": { "type": "MultiLineString", "coordinates": [ [ [ 35.201371, 31.775814, 0.0 ], [ 35.201425, 31.775832, 0.0 ] ] ] } },
{ "type": "Feature", "properties": { "Name": "" }, "geometry": { "type": "MultiLineString", "coordinates": [ [ [ 35.213234, 31.750757, 0.0 ], [ 35.212531, 31.750691, 0.0 ], [ 35.211511, 31.750569, 0.0 ] ] ] } },
{ "type": "Feature", "properties": { "Name": "" }, "geometry": { "type": "MultiLineString", "coordinates": [ [ [ 35.213337, 31.750958, 0.0 ], [ 35.213208, 31.750985, 0.0 ], [ 35.212918, 31.750918, 0.0 ], [ 35.212796, 31.750855, 0.0 ], [ 35.212087, 31.750748, 0.0 ], [ 35.211737, 31.750703, 0.0 ], [ 35.211232, 31.750681, 0.0 ], [ 35.210987, 31.750706, 0.0 ], [ 35.210675, 31.750775, 0.0 ], [ 35.210363, 31.750884, 0.0 ], [ 35.210164, 31.750988, 0.0 ], [ 35.209957, 31.751127, 0.0 ], [ 35.20973, 31.751346, 0.0 ] ] ] } },
{ "type": "Feature", "properties": { "Name": "" }, "geometry": { "type": "MultiLineString", "coordinates": [ [ [ 35.209725, 31.751369, 0.0 ], [ 35.209591, 31.751683, 0.0 ], [ 35.209493, 31.751847, 0.0 ] ] ] } },
{ "type": "Feature", "properties": { "Name": "" }, "geometry": { "type": "MultiLineString", "coordinates": [ [ [ 35.209411, 31.751956, 0.0 ], [ 35.209215, 31.75221, 0.0 ], [ 35.208951, 31.752416, 0.0 ], [ 35.208654, 31.752583, 0.0 ] ] ] } },
{ "type": "Feature", "properties": { "Name": "" }, "geometry": { "type": "MultiLineString", "coordinates": [ [ [ 35.209471, 31.751602, 0.0 ], [ 35.209249, 31.751975, 0.0 ], [ 35.208985, 31.752255, 0.0 ], [ 35.208688, 31.752422, 0.0 ], [ 35.208503, 31.752487, 0.0 ] ] ] } },
{ "type": "Feature", "properties": { "Name": "" }, "geometry": { "type": "MultiLineString", "coordinates": [ [ [ 35.215905, 31.744771, 0.0 ], [ 35.216073, 31.744915, 0.0 ], [ 35.216315, 31.745277, 0.0 ], [ 35.21655, 31.745661, 0.0 ] ] ] } },
{ "type": "Feature", "properties": { "Name": "" }, "geometry": { "type": "MultiLineString", "coordinates": [ [ [ 35.172104, 31.75892, 0.0 ], [ 35.172228, 31.758915, 0.0 ], [ 35.172344, 31.758908, 0.0 ], [ 35.172431, 31.758892, 0.0 ], [ 35.172557, 31.758848, 0.0 ], [ 35.172662, 31.758807, 0.0 ], [ 35.172803, 31.758798, 0.0 ], [ 35.173001, 31.758813, 0.0 ], [ 35.173226, 31.75883, 0.0 ], [ 35.173493, 31.758824, 0.0 ], [ 35.173665, 31.758779, 0.0 ], [ 35.173795, 31.758693, 0.0 ], [ 35.17387, 31.758631, 0.0 ], [ 35.174047, 31.758538, 0.0 ], [ 35.174113, 31.7585, 0.0 ], [ 35.174174, 31.758445, 0.0 ], [ 35.17435, 31.758285, 0.0 ], [ 35.17449, 31.758164, 0.0 ], [ 35.174534, 31.758114, 0.0 ], [ 35.174566, 31.758062, 0.0 ], [ 35.174596, 31.758002, 0.0 ] ] ] } },
{ "type": "Feature", "properties": { "Name": "" }, "geometry": { "type": "MultiLineString", "coordinates": [ [ [ 35.176511, 31.741071, 0.0 ], [ 35.176539, 31.741129, 0.0 ], [ 35.17658, 31.74115, 0.0 ], [ 35.176642, 31.741154, 0.0 ], [ 35.176855, 31.741118, 0.0 ], [ 35.177134, 31.741079, 0.0 ], [ 35.177246, 31.741056, 0.0 ], [ 35.177423, 31.740997, 0.0 ], [ 35.177607, 31.740933, 0.0 ], [ 35.177744, 31.740865, 0.0 ], [ 35.177988, 31.740736, 0.0 ], [ 35.178067, 31.740703, 0.0 ], [ 35.178157, 31.740682, 0.0 ], [ 35.178274, 31.740683, 0.0 ], [ 35.178407, 31.740727, 0.0 ], [ 35.178501, 31.740768, 0.0 ], [ 35.178578, 31.740843, 0.0 ], [ 35.17862, 31.740934, 0.0 ], [ 35.178661, 31.741038, 0.0 ], [ 35.178696, 31.741154, 0.0 ], [ 35.178706, 31.741305, 0.0 ], [ 35.178758, 31.741662, 0.0 ], [ 35.178802, 31.741868, 0.0 ], [ 35.178872, 31.742052, 0.0 ], [ 35.178982, 31.742265, 0.0 ], [ 35.179118, 31.742423, 0.0 ], [ 35.179349, 31.742642, 0.0 ], [ 35.179461, 31.742754, 0.0 ], [ 35.179601, 31.742836, 0.0 ], [ 35.180177, 31.743057, 0.0 ], [ 35.180299, 31.743074, 0.0 ], [ 35.180475, 31.743059, 0.0 ], [ 35.180788, 31.743072, 0.0 ], [ 35.181092, 31.743135, 0.0 ], [ 35.181524, 31.743295, 0.0 ], [ 35.18179, 31.743453, 0.0 ], [ 35.181968, 31.743611, 0.0 ], [ 35.182226, 31.743933, 0.0 ], [ 35.182339, 31.744134, 0.0 ], [ 35.182391, 31.744269, 0.0 ], [ 35.182529, 31.744408, 0.0 ], [ 35.182822, 31.744587, 0.0 ], [ 35.182983, 31.744709, 0.0 ], [ 35.183063, 31.74482, 0.0 ], [ 35.183123, 31.744988, 0.0 ], [ 35.183207, 31.745179, 0.0 ], [ 35.183403, 31.745408, 0.0 ], [ 35.183591, 31.745527, 0.0 ], [ 35.183797, 31.745621, 0.0 ], [ 35.184046, 31.745674, 0.0 ], [ 35.184201, 31.745683, 0.0 ], [ 35.184367, 31.745744, 0.0 ], [ 35.184549, 31.745896, 0.0 ], [ 35.184654, 31.746033, 0.0 ], [ 35.184656, 31.746137, 0.0 ], [ 35.184627, 31.746255, 0.0 ], [ 35.18456, 31.746347, 0.0 ], [ 35.184425, 31.746459, 0.0 ], [ 35.184245, 31.746644, 0.0 ], [ 35.184044, 31.746918, 0.0 ], [ 35.184041, 31.746924, 0.0 ] ] ] } },
{ "type": "Feature", "properties": { "Name": "" }, "geometry": { "type": "MultiLineString", "coordinates": [ [ [ 35.200918, 31.740198, 0.0 ], [ 35.200931, 31.740267, 0.0 ], [ 35.201197, 31.74043, 0.0 ], [ 35.20118, 31.740482, 0.0 ], [ 35.200947, 31.740768, 0.0 ], [ 35.20078, 31.740979, 0.0 ], [ 35.20049, 31.741328, 0.0 ], [ 35.200415, 31.74143, 0.0 ] ] ] } },
{ "type": "Feature", "properties": { "Name": "" }, "geometry": { "type": "MultiLineString", "coordinates": [ [ [ 35.200414, 31.741435, 0.0 ], [ 35.200367, 31.741512, 0.0 ] ] ] } },
{ "type": "Feature", "properties": { "Name": "" }, "geometry": { "type": "MultiLineString", "coordinates": [ [ [ 35.200367, 31.741512, 0.0 ], [ 35.200342, 31.741549, 0.0 ], [ 35.200124, 31.741691, 0.0 ], [ 35.199978, 31.741809, 0.0 ], [ 35.199659, 31.742076, 0.0 ], [ 35.199393, 31.742336, 0.0 ], [ 35.199117, 31.74258, 0.0 ], [ 35.198906, 31.742789, 0.0 ], [ 35.198773, 31.742945, 0.0 ], [ 35.198587, 31.743144, 0.0 ], [ 35.198336, 31.743371, 0.0 ], [ 35.198316, 31.74347, 0.0 ], [ 35.198365, 31.743637, 0.0 ], [ 35.198405, 31.743839, 0.0 ], [ 35.19842, 31.743975, 0.0 ], [ 35.198417, 31.744081, 0.0 ], [ 35.198389, 31.744114, 0.0 ], [ 35.198356, 31.744131, 0.0 ], [ 35.198301, 31.744128, 0.0 ], [ 35.198277, 31.744087, 0.0 ], [ 35.198265, 31.744023, 0.0 ], [ 35.198249, 31.743874, 0.0 ], [ 35.198223, 31.743743, 0.0 ], [ 35.198203, 31.743703, 0.0 ], [ 35.198165, 31.743706, 0.0 ] ] ] } },
{ "type": "Feature", "properties": { "Name": "" }, "geometry": { "type": "MultiLineString", "coordinates": [ [ [ 35.198126, 31.743692, 0.0 ], [ 35.198052, 31.743704, 0.0 ] ] ] } },
{ "type": "Feature", "properties": { "Name": "" }, "geometry": { "type": "MultiLineString", "coordinates": [ [ [ 35.221226, 31.742631, 0.0 ], [ 35.221572, 31.742847, 0.0 ], [ 35.221892, 31.743034, 0.0 ] ] ] } },
{ "type": "Feature", "properties": { "Name": "" }, "geometry": { "type": "MultiLineString", "coordinates": [ [ [ 35.222516, 31.743436, 0.0 ], [ 35.222711, 31.743574, 0.0 ], [ 35.223003, 31.743768, 0.0 ] ] ] } },
{ "type": "Feature", "properties": { "Name": "" }, "geometry": { "type": "MultiLineString", "coordinates": [ [ [ 35.223518, 31.744065, 0.0 ], [ 35.223875, 31.744289, 0.0 ], [ 35.223999, 31.744404, 0.0 ], [ 35.224109, 31.744557, 0.0 ], [ 35.224178, 31.744693, 0.0 ], [ 35.22423, 31.744887, 0.0 ], [ 35.224274, 31.745112, 0.0 ] ] ] } },
{ "type": "Feature", "properties": { "Name": "" }, "geometry": { "type": "MultiLineString", "coordinates": [ [ [ 35.224487, 31.745814, 0.0 ], [ 35.224525, 31.745901, 0.0 ], [ 35.224619, 31.745975, 0.0 ] ] ] } },
{ "type": "Feature", "properties": { "Name": "" }, "geometry": { "type": "MultiLineString", "coordinates": [ [ [ 35.199338, 31.754427, 0.0 ], [ 35.199377, 31.754304, 0.0 ] ] ] } },
{ "type": "Feature", "properties": { "Name": "" }, "geometry": { "type": "MultiLineString", "coordinates": [ [ [ 35.199485, 31.753849 ], [ 35.199496, 31.753754 ], [ 35.199497, 31.75368 ], [ 35.199484, 31.753602 ] ], [ [ 35.199384, 31.754296 ], [ 35.19944, 31.75414 ], [ 35.199467, 31.754015 ], [ 35.199484, 31.753851 ] ] ] } },
{ "type": "Feature", "properties": { "Name": "" }, "geometry": { "type": "MultiLineString", "coordinates": [ [ [ 35.198569, 31.755668, 0.0 ], [ 35.198782, 31.755371, 0.0 ], [ 35.198951, 31.75515, 0.0 ], [ 35.199074, 31.754968, 0.0 ], [ 35.19918, 31.754791, 0.0 ], [ 35.199212, 31.754727, 0.0 ], [ 35.199262, 31.754618, 0.0 ], [ 35.199337, 31.754433, 0.0 ] ] ] } },
{ "type": "Feature", "properties": { "Name": "" }, "geometry": { "type": "MultiLineString", "coordinates": [ [ [ 35.19899, 31.75271, 0.0 ], [ 35.198919, 31.752555, 0.0 ], [ 35.198748, 31.752142, 0.0 ], [ 35.198659, 31.751959, 0.0 ] ] ] } },
{ "type": "Feature", "properties": { "Name": "" }, "geometry": { "type": "MultiLineString", "coordinates": [ [ [ 35.198578, 31.751868, 0.0 ], [ 35.198528, 31.751825, 0.0 ] ] ] } },
{ "type": "Feature", "properties": { "Name": "" }, "geometry": { "type": "MultiLineString", "coordinates": [ [ [ 35.198526, 31.751776, 0.0 ], [ 35.198563, 31.751696, 0.0 ] ] ] } },
{ "type": "Feature", "properties": { "Name": "" }, "geometry": { "type": "MultiLineString", "coordinates": [ [ [ 35.200972, 31.789095, 0.0 ], [ 35.201302, 31.788997, 0.0 ], [ 35.20154, 31.788903, 0.0 ], [ 35.201671, 31.788839, 0.0 ], [ 35.201899, 31.788722, 0.0 ], [ 35.202076, 31.78866, 0.0 ], [ 35.20209, 31.788651, 0.0 ] ] ] } },
{ "type": "Feature", "properties": { "Name": "" }, "geometry": { "type": "MultiLineString", "coordinates": [ [ [ 35.198891, 31.786442, 0.0 ], [ 35.198898, 31.786483, 0.0 ] ] ] } },
{ "type": "Feature", "properties": { "Name": "" }, "geometry": { "type": "MultiLineString", "coordinates": [ [ [ 35.199199, 31.786718, 0.0 ], [ 35.199148, 31.786692, 0.0 ] ] ] } },
{ "type": "Feature", "properties": { "Name": "" }, "geometry": { "type": "MultiLineString", "coordinates": [ [ [ 35.20573, 31.731923, 0.0 ], [ 35.206016, 31.731999, 0.0 ], [ 35.206218, 31.732084, 0.0 ], [ 35.206583, 31.732278, 0.0 ], [ 35.206943, 31.732516, 0.0 ], [ 35.207169, 31.732668, 0.0 ], [ 35.207454, 31.732862, 0.0 ], [ 35.207742, 31.733042, 0.0 ], [ 35.207963, 31.733181, 0.0 ], [ 35.208227, 31.733352, 0.0 ], [ 35.208407, 31.73348, 0.0 ], [ 35.208651, 31.733683, 0.0 ], [ 35.208814, 31.733835, 0.0 ], [ 35.208976, 31.733996, 0.0 ] ] ] } },
{ "type": "Feature", "properties": { "Name": "" }, "geometry": { "type": "MultiLineString", "coordinates": [ [ [ 35.210496, 31.736858, 0.0 ], [ 35.210527, 31.736932, 0.0 ] ] ] } },
{ "type": "Feature", "properties": { "Name": "" }, "geometry": { "type": "MultiLineString", "coordinates": [ [ [ 35.210535, 31.736957, 0.0 ], [ 35.210564, 31.737022, 0.0 ] ] ] } },
{ "type": "Feature", "properties": { "Name": "" }, "geometry": { "type": "MultiLineString", "coordinates": [ [ [ 35.210564, 31.737024, 0.0 ], [ 35.210636, 31.737212, 0.0 ], [ 35.210699, 31.737322, 0.0 ], [ 35.210819, 31.73751, 0.0 ], [ 35.210912, 31.737652, 0.0 ], [ 35.21109, 31.737941, 0.0 ], [ 35.211353, 31.738319, 0.0 ], [ 35.211589, 31.73866, 0.0 ], [ 35.211912, 31.739099, 0.0 ], [ 35.212153, 31.739418, 0.0 ], [ 35.212182, 31.739456, 0.0 ], [ 35.212239, 31.739578, 0.0 ], [ 35.21248, 31.739913, 0.0 ], [ 35.21255, 31.739993, 0.0 ], [ 35.212577, 31.740048, 0.0 ] ] ] } },
{ "type": "Feature", "properties": { "Name": "" }, "geometry": { "type": "MultiLineString", "coordinates": [ [ [ 35.212578, 31.74005, 0.0 ], [ 35.212629, 31.740125, 0.0 ] ] ] } },
{ "type": "Feature", "properties": { "Name": "" }, "geometry": { "type": "MultiLineString", "coordinates": [ [ [ 35.212642, 31.740145, 0.0 ], [ 35.212689, 31.740217, 0.0 ] ] ] } },
{ "type": "Feature", "properties": { "Name": "" }, "geometry": { "type": "MultiLineString", "coordinates": [ [ [ 35.212689, 31.740217, 0.0 ], [ 35.212758, 31.740324, 0.0 ], [ 35.212815, 31.740374, 0.0 ], [ 35.21287, 31.74044, 0.0 ], [ 35.213023, 31.740683, 0.0 ], [ 35.213242, 31.741023, 0.0 ], [ 35.213403, 31.741268, 0.0 ], [ 35.213538, 31.741492, 0.0 ], [ 35.213703, 31.74181, 0.0 ], [ 35.213856, 31.742097, 0.0 ], [ 35.213995, 31.742326, 0.0 ], [ 35.214125, 31.742518, 0.0 ], [ 35.214143, 31.74257, 0.0 ], [ 35.214163, 31.742593, 0.0 ] ] ] } },
{ "type": "Feature", "properties": { "Name": "" }, "geometry": { "type": "MultiLineString", "coordinates": [ [ [ 35.214171, 31.742595, 0.0 ], [ 35.214219, 31.742656, 0.0 ] ] ] } },
{ "type": "Feature", "properties": { "Name": "" }, "geometry": { "type": "MultiLineString", "coordinates": [ [ [ 35.214252, 31.742708, 0.0 ], [ 35.21431, 31.742787, 0.0 ] ] ] } },
{ "type": "Feature", "properties": { "Name": "" }, "geometry": { "type": "MultiLineString", "coordinates": [ [ [ 35.214385, 31.742866 ], [ 35.214733, 31.743299 ] ], [ [ 35.214734, 31.743301 ], [ 35.214907, 31.74353 ], [ 35.215003, 31.743658 ], [ 35.215135, 31.743827 ], [ 35.215273, 31.743989 ], [ 35.215301, 31.744041 ], [ 35.215311, 31.744112 ], [ 35.215372, 31.744186 ], [ 35.215451, 31.744274 ], [ 35.215569, 31.744362 ], [ 35.215628, 31.744422 ] ] ] } },
{ "type": "Feature", "properties": { "Name": "" }, "geometry": { "type": "MultiLineString", "coordinates": [ [ [ 35.21564, 31.744435, 0.0 ], [ 35.215723, 31.744509, 0.0 ] ] ] } },
{ "type": "Feature", "properties": { "Name": "" }, "geometry": { "type": "MultiLineString", "coordinates": [ [ [ 35.21577, 31.74457, 0.0 ], [ 35.215832, 31.744667, 0.0 ] ] ] } },
{ "type": "Feature", "properties": { "Name": "" }, "geometry": { "type": "MultiLineString", "coordinates": [ [ [ 35.215858, 31.744693, 0.0 ], [ 35.215905, 31.744768, 0.0 ] ] ] } },
{ "type": "Feature", "properties": { "Name": "" }, "geometry": { "type": "MultiLineString", "coordinates": [ [ [ 35.22241, 31.756364, 0.0 ], [ 35.222437, 31.756429, 0.0 ], [ 35.222586, 31.756784, 0.0 ], [ 35.222784, 31.757281, 0.0 ], [ 35.222975, 31.757708, 0.0 ], [ 35.223079, 31.757984, 0.0 ], [ 35.223274, 31.758422, 0.0 ], [ 35.223435, 31.758768, 0.0 ], [ 35.223601, 31.759131, 0.0 ], [ 35.223742, 31.759407, 0.0 ], [ 35.224053, 31.759907, 0.0 ], [ 35.22438, 31.760436, 0.0 ], [ 35.2246, 31.760863, 0.0 ], [ 35.224706, 31.761055, 0.0 ], [ 35.22486, 31.761332, 0.0 ], [ 35.224918, 31.761406, 0.0 ], [ 35.224978, 31.761421, 0.0 ] ] ] } },
{ "type": "Feature", "properties": { "Name": "" }, "geometry": { "type": "MultiLineString", "coordinates": [ [ [ 35.22497, 31.761432, 0.0 ], [ 35.224989, 31.761496, 0.0 ] ] ] } },
{ "type": "Feature", "properties": { "Name": "" }, "geometry": { "type": "MultiLineString", "coordinates": [ [ [ 35.225005, 31.761533, 0.0 ], [ 35.225052, 31.761611, 0.0 ] ] ] } },
{ "type": "Feature", "properties": { "Name": "" }, "geometry": { "type": "MultiLineString", "coordinates": [ [ [ 35.225119, 31.761719, 0.0 ], [ 35.225203, 31.761749, 0.0 ] ] ] } },
{ "type": "Feature", "properties": { "Name": "" }, "geometry": { "type": "MultiLineString", "coordinates": [ [ [ 35.225073, 31.761708, 0.0 ], [ 35.224977, 31.761751, 0.0 ] ] ] } },
{ "type": "Feature", "properties": { "Name": "" }, "geometry": { "type": "MultiLineString", "coordinates": [ [ [ 35.224958, 31.761759, 0.0 ], [ 35.224852, 31.761803, 0.0 ] ] ] } },
{ "type": "Feature", "properties": { "Name": "" }, "geometry": { "type": "MultiLineString", "coordinates": [ [ [ 35.224839, 31.761805, 0.0 ], [ 35.224758, 31.761836, 0.0 ], [ 35.224753, 31.761888, 0.0 ], [ 35.224893, 31.76213, 0.0 ], [ 35.22498, 31.762396, 0.0 ], [ 35.225011, 31.762623, 0.0 ], [ 35.225045, 31.762917, 0.0 ] ] ] } },
{ "type": "Feature", "properties": { "Name": "" }, "geometry": { "type": "MultiLineString", "coordinates": [ [ [ 35.211535, 31.738502, 0.0 ], [ 35.211609, 31.738461, 0.0 ] ] ] } },
{ "type": "Feature", "properties": { "Name": "" }, "geometry": { "type": "MultiLineString", "coordinates": [ [ [ 35.214285, 31.802573, 0.0 ], [ 35.214282, 31.802357, 0.0 ], [ 35.214251, 31.802191, 0.0 ], [ 35.214215, 31.80209, 0.0 ], [ 35.214197, 31.801957, 0.0 ], [ 35.214171, 31.801868, 0.0 ], [ 35.214155, 31.80184, 0.0 ], [ 35.214098, 31.801779, 0.0 ], [ 35.214073, 31.801707, 0.0 ], [ 35.214055, 31.801659, 0.0 ], [ 35.214019, 31.801627, 0.0 ], [ 35.213946, 31.801615, 0.0 ] ] ] } },
{ "type": "Feature", "properties": { "Name": "" }, "geometry": { "type": "MultiLineString", "coordinates": [ [ [ 35.213925, 31.801609, 0.0 ], [ 35.213894, 31.801547, 0.0 ] ] ] } },
{ "type": "Feature", "properties": { "Name": "" }, "geometry": { "type": "MultiLineString", "coordinates": [ [ [ 35.213854, 31.801487, 0.0 ], [ 35.213822, 31.801425, 0.0 ] ] ] } },
{ "type": "Feature", "properties": { "Name": "" }, "geometry": { "type": "MultiLineString", "coordinates": [ [ [ 35.213852, 31.801436, 0.0 ], [ 35.213847, 31.801416, 0.0 ], [ 35.213872, 31.80138, 0.0 ], [ 35.213896, 31.801332, 0.0 ], [ 35.213916, 31.801273, 0.0 ], [ 35.213901, 31.801213, 0.0 ], [ 35.213869, 31.801094, 0.0 ], [ 35.213817, 31.800895, 0.0 ], [ 35.213728, 31.800635, 0.0 ], [ 35.21362, 31.800369, 0.0 ], [ 35.213526, 31.800184, 0.0 ], [ 35.213509, 31.800151, 0.0 ] ] ] } },
{ "type": "Feature", "properties": { "Name": "" }, "geometry": { "type": "MultiLineString", "coordinates": [ [ [ 35.213509, 31.800151, 0.0 ], [ 35.213501, 31.800134, 0.0 ], [ 35.213465, 31.800123, 0.0 ], [ 35.213373, 31.800106, 0.0 ], [ 35.213236, 31.800082, 0.0 ], [ 35.212954, 31.800027, 0.0 ], [ 35.212682, 31.799972, 0.0 ], [ 35.212236, 31.799876, 0.0 ], [ 35.211933, 31.79982, 0.0 ] ] ] } },
{ "type": "Feature", "properties": { "Name": "" }, "geometry": { "type": "MultiLineString", "coordinates": [ [ [ 35.203664, 31.808266, 0.0 ], [ 35.203617, 31.808275, 0.0 ] ] ] } },
{ "type": "Feature", "properties": { "Name": "" }, "geometry": { "type": "MultiLineString", "coordinates": [ [ [ 35.203617, 31.808275, 0.0 ], [ 35.203585, 31.808291, 0.0 ], [ 35.20356, 31.808316, 0.0 ], [ 35.203598, 31.808435, 0.0 ], [ 35.203623, 31.808606, 0.0 ], [ 35.203654, 31.808855, 0.0 ], [ 35.20366, 31.808997, 0.0 ], [ 35.203682, 31.809074, 0.0 ], [ 35.203699, 31.80919, 0.0 ], [ 35.203694, 31.809367, 0.0 ], [ 35.203665, 31.809577, 0.0 ], [ 35.203635, 31.809805, 0.0 ], [ 35.203611, 31.809931, 0.0 ], [ 35.203551, 31.810125, 0.0 ], [ 35.203375, 31.810593, 0.0 ], [ 35.203208, 31.810926, 0.0 ], [ 35.202961, 31.811255, 0.0 ], [ 35.202709, 31.81151, 0.0 ], [ 35.202517, 31.811667, 0.0 ], [ 35.202279, 31.811825, 0.0 ], [ 35.202058, 31.811946, 0.0 ], [ 35.201643, 31.81212, 0.0 ], [ 35.201548, 31.812153, 0.0 ], [ 35.201411, 31.812184, 0.0 ], [ 35.201308, 31.812199, 0.0 ], [ 35.201266, 31.8122, 0.0 ], [ 35.201197, 31.812189, 0.0 ], [ 35.201137, 31.812169, 0.0 ], [ 35.201037, 31.812175, 0.0 ] ] ] } },
{ "type": "Feature", "properties": { "Name": "" }, "geometry": { "type": "MultiLineString", "coordinates": [ [ [ 35.200918, 31.8122, 0.0 ], [ 35.200751, 31.812201, 0.0 ], [ 35.200724, 31.812204, 0.0 ], [ 35.200699, 31.812211, 0.0 ], [ 35.200674, 31.812228, 0.0 ], [ 35.200641, 31.812241, 0.0 ], [ 35.200587, 31.812251, 0.0 ], [ 35.200498, 31.812261, 0.0 ], [ 35.20032, 31.812269, 0.0 ], [ 35.200165, 31.812259, 0.0 ], [ 35.20008, 31.812258, 0.0 ], [ 35.199919, 31.812264, 0.0 ], [ 35.199822, 31.812268, 0.0 ], [ 35.199558, 31.812297, 0.0 ], [ 35.199312, 31.812325, 0.0 ], [ 35.199088, 31.812353, 0.0 ], [ 35.198873, 31.812384, 0.0 ], [ 35.198651, 31.812425, 0.0 ], [ 35.198542, 31.812461, 0.0 ], [ 35.198423, 31.812504, 0.0 ], [ 35.198135, 31.812603, 0.0 ], [ 35.197786, 31.812751, 0.0 ], [ 35.197571, 31.812861, 0.0 ], [ 35.197349, 31.812988, 0.0 ], [ 35.19716, 31.813109, 0.0 ], [ 35.196934, 31.813283, 0.0 ], [ 35.196742, 31.813458, 0.0 ], [ 35.196587, 31.813622, 0.0 ], [ 35.196445, 31.813803, 0.0 ], [ 35.196358, 31.813929, 0.0 ], [ 35.196256, 31.8141, 0.0 ], [ 35.196161, 31.814288, 0.0 ], [ 35.196103, 31.814432, 0.0 ], [ 35.196056, 31.81457, 0.0 ], [ 35.195987, 31.814767, 0.0 ], [ 35.19593, 31.814936, 0.0 ], [ 35.195878, 31.815061, 0.0 ], [ 35.195848, 31.815103, 0.0 ], [ 35.195782, 31.815177, 0.0 ], [ 35.195772, 31.815256, 0.0 ] ] ] } },
{ "type": "Feature", "properties": { "Name": "" }, "geometry": { "type": "MultiLineString", "coordinates": [ [ [ 35.195761, 31.81534, 0.0 ], [ 35.195702, 31.815485, 0.0 ], [ 35.19566, 31.815573, 0.0 ], [ 35.195659, 31.815628, 0.0 ], [ 35.195664, 31.815719, 0.0 ], [ 35.195658, 31.815777, 0.0 ], [ 35.195611, 31.815934, 0.0 ], [ 35.195383, 31.816454, 0.0 ], [ 35.195093, 31.816992, 0.0 ], [ 35.19511, 31.817082, 0.0 ], [ 35.195012, 31.817312, 0.0 ], [ 35.194973, 31.817486, 0.0 ], [ 35.194879, 31.817603, 0.0 ], [ 35.194815, 31.817755, 0.0 ], [ 35.194714, 31.817979, 0.0 ], [ 35.194699, 31.818029, 0.0 ], [ 35.194551, 31.818195, 0.0 ], [ 35.194362, 31.818362, 0.0 ], [ 35.194307, 31.818425, 0.0 ], [ 35.194156, 31.818517, 0.0 ], [ 35.19405, 31.818513, 0.0 ], [ 35.19403, 31.818578, 0.0 ] ] ] } },
{ "type": "Feature", "properties": { "Name": "" }, "geometry": { "type": "MultiLineString", "coordinates": [ [ [ 35.19383, 31.818704, 0.0 ], [ 35.193714, 31.818731, 0.0 ], [ 35.19364, 31.818719, 0.0 ], [ 35.193482, 31.818864, 0.0 ], [ 35.191578, 31.819548, 0.0 ], [ 35.190959, 31.819794, 0.0 ], [ 35.190644, 31.819945, 0.0 ], [ 35.190104, 31.820296, 0.0 ], [ 35.189799, 31.820604, 0.0 ], [ 35.189492, 31.82107, 0.0 ], [ 35.189404, 31.821277, 0.0 ], [ 35.189352, 31.821372, 0.0 ], [ 35.189262, 31.821451, 0.0 ], [ 35.189295, 31.8215, 0.0 ] ] ] } },
{ "type": "Feature", "properties": { "Name": "" }, "geometry": { "type": "MultiLineString", "coordinates": [ [ [ 35.193941, 31.818649, 0.0 ], [ 35.193879, 31.818677, 0.0 ] ] ] } },
{ "type": "Feature", "properties": { "Name": "" }, "geometry": { "type": "MultiLineString", "coordinates": [ [ [ 35.188857, 31.823358, 0.0 ], [ 35.188816, 31.823459, 0.0 ], [ 35.188532, 31.824533, 0.0 ], [ 35.18848, 31.824842, 0.0 ], [ 35.188494, 31.825137, 0.0 ], [ 35.188464, 31.825372, 0.0 ] ] ] } },
{ "type": "Feature", "properties": { "Name": "" }, "geometry": { "type": "MultiLineString", "coordinates": [ [ [ 35.189302, 31.821586, 0.0 ], [ 35.18928, 31.821651, 0.0 ] ] ] } },
{ "type": "Feature", "properties": { "Name": "" }, "geometry": { "type": "MultiLineString", "coordinates": [ [ [ 35.189276, 31.821676, 0.0 ], [ 35.189253, 31.821728, 0.0 ], [ 35.189251, 31.821791, 0.0 ], [ 35.189287, 31.821871, 0.0 ], [ 35.189203, 31.822284, 0.0 ], [ 35.18919, 31.822361, 0.0 ], [ 35.18898, 31.823058, 0.0 ], [ 35.188857, 31.823358, 0.0 ] ] ] } },
{ "type": "Feature", "properties": { "Name": "" }, "geometry": { "type": "MultiLineString", "coordinates": [ [ [ 35.206151, 31.750304, 0.0 ], [ 35.206109, 31.750333, 0.0 ], [ 35.206073, 31.750347, 0.0 ], [ 35.206037, 31.750347, 0.0 ], [ 35.205999, 31.750331, 0.0 ], [ 35.205962, 31.750308, 0.0 ], [ 35.205934, 31.750285, 0.0 ], [ 35.205889, 31.750267, 0.0 ], [ 35.205835, 31.750245, 0.0 ], [ 35.205791, 31.750239, 0.0 ] ] ] } },
{ "type": "Feature", "properties": { "Name": "" }, "geometry": { "type": "MultiLineString", "coordinates": [ [ [ 35.205361, 31.750714, 0.0 ], [ 35.205108, 31.75066, 0.0 ], [ 35.205021, 31.750633, 0.0 ], [ 35.204991, 31.750614, 0.0 ], [ 35.204772, 31.750562, 0.0 ], [ 35.204689, 31.750546, 0.0 ], [ 35.204277, 31.750565, 0.0 ], [ 35.203974, 31.750582, 0.0 ], [ 35.203571, 31.750646, 0.0 ] ] ] } },
{ "type": "Feature", "properties": { "Name": "" }, "geometry": { "type": "MultiLineString", "coordinates": [ [ [ 35.20774, 31.75427, 0.0 ], [ 35.207678, 31.754155, 0.0 ], [ 35.20746, 31.753736, 0.0 ], [ 35.207323, 31.753476, 0.0 ], [ 35.207295, 31.753454, 0.0 ], [ 35.207276, 31.75344, 0.0 ], [ 35.207241, 31.753428, 0.0 ], [ 35.207211, 31.753422, 0.0 ], [ 35.207162, 31.753426, 0.0 ], [ 35.207119, 31.753448, 0.0 ], [ 35.206802, 31.753644, 0.0 ] ] ] } },
{ "type": "Feature", "properties": { "Name": "" }, "geometry": { "type": "MultiLineString", "coordinates": [ [ [ 35.208976, 31.733996, 0.0 ], [ 35.208978, 31.733999, 0.0 ], [ 35.209058, 31.734121, 0.0 ], [ 35.209189, 31.734276, 0.0 ], [ 35.209283, 31.734359, 0.0 ], [ 35.209407, 31.734524, 0.0 ], [ 35.209526, 31.734708, 0.0 ], [ 35.209679, 31.734987, 0.0 ], [ 35.209805, 31.735231, 0.0 ], [ 35.209952, 31.735507, 0.0 ], [ 35.210125, 31.73586, 0.0 ], [ 35.210291, 31.736252, 0.0 ], [ 35.210398, 31.736521, 0.0 ], [ 35.210494, 31.736788, 0.0 ], [ 35.210489, 31.736837, 0.0 ], [ 35.210494, 31.736854, 0.0 ] ] ] } },
{ "type": "Feature", "properties": { "Name": "" }, "geometry": { "type": "MultiLineString", "coordinates": [ [ [ 35.18809, 31.779969, 0.0 ], [ 35.188163, 31.779917, 0.0 ], [ 35.188298, 31.779864, 0.0 ], [ 35.188412, 31.779852, 0.0 ], [ 35.188589, 31.77997, 0.0 ], [ 35.188735, 31.780198, 0.0 ], [ 35.188835, 31.780289, 0.0 ], [ 35.188984, 31.780323, 0.0 ], [ 35.189266, 31.780361, 0.0 ], [ 35.189635, 31.780407, 0.0 ], [ 35.189943, 31.780451, 0.0 ], [ 35.190554, 31.780541, 0.0 ], [ 35.190796, 31.780597, 0.0 ], [ 35.191048, 31.780745, 0.0 ], [ 35.19132, 31.780946, 0.0 ], [ 35.191553, 31.781149, 0.0 ], [ 35.191864, 31.781479, 0.0 ], [ 35.191977, 31.781649, 0.0 ], [ 35.192027, 31.781824, 0.0 ], [ 35.192019, 31.782084, 0.0 ], [ 35.192035, 31.782314, 0.0 ], [ 35.192102, 31.782444, 0.0 ], [ 35.192155, 31.782565, 0.0 ] ] ] } },
{ "type": "Feature", "properties": { "Name": "" }, "geometry": { "type": "MultiLineString", "coordinates": [ [ [ 35.185731, 31.774926, 0.0 ], [ 35.185918, 31.775049, 0.0 ], [ 35.186122, 31.775179, 0.0 ], [ 35.18639, 31.775378, 0.0 ], [ 35.186681, 31.775585, 0.0 ], [ 35.186847, 31.775711, 0.0 ], [ 35.186928, 31.775817, 0.0 ], [ 35.18701, 31.775859, 0.0 ], [ 35.187424, 31.775942, 0.0 ], [ 35.187749, 31.775988, 0.0 ], [ 35.187801, 31.776017, 0.0 ], [ 35.187828, 31.776018, 0.0 ] ] ] } },
{ "type": "Feature", "properties": { "Name": "" }, "geometry": { "type": "MultiLineString", "coordinates": [ [ [ 35.205727, 31.748859, 0.0 ], [ 35.205769, 31.748764, 0.0 ], [ 35.205802, 31.748704, 0.0 ], [ 35.205854, 31.748613, 0.0 ], [ 35.205955, 31.748467, 0.0 ], [ 35.206076, 31.748343, 0.0 ], [ 35.206237, 31.748214, 0.0 ], [ 35.206364, 31.748112, 0.0 ], [ 35.206544, 31.748002, 0.0 ], [ 35.210227, 31.746811, 0.0 ] ] ] } },
{ "type": "Feature", "properties": { "Name": "" }, "geometry": { "type": "MultiLineString", "coordinates": [ [ [ 35.174165, 31.785645, 0.0 ], [ 35.174142, 31.78553, 0.0 ], [ 35.174021, 31.785307, 0.0 ], [ 35.173912, 31.785136, 0.0 ], [ 35.17364, 31.78474, 0.0 ], [ 35.173509, 31.784528, 0.0 ], [ 35.173419, 31.784347, 0.0 ], [ 35.173407, 31.78419, 0.0 ], [ 35.173391, 31.784015, 0.0 ], [ 35.173465, 31.783671, 0.0 ], [ 35.173578, 31.783368, 0.0 ], [ 35.17362, 31.783332, 0.0 ], [ 35.173623, 31.783325, 0.0 ] ] ] } },
{ "type": "Feature", "properties": { "Name": "" }, "geometry": { "type": "MultiLineString", "coordinates": [ [ [ 35.202511, 31.732228, 0.0 ], [ 35.202366, 31.731776, 0.0 ] ] ] } },
{ "type": "Feature", "properties": { "Name": "" }, "geometry": { "type": "MultiLineString", "coordinates": [ [ [ 35.199896, 31.760713, 0.0 ], [ 35.199902, 31.760306, 0.0 ], [ 35.199767, 31.759845, 0.0 ], [ 35.199536, 31.759384, 0.0 ], [ 35.199099, 31.759016, 0.0 ], [ 35.197557, 31.757747, 0.0 ] ] ] } },
{ "type": "Feature", "properties": { "Name": "" }, "geometry": { "type": "MultiLineString", "coordinates": [ [ [ 35.21389, 31.800279, 0.0 ], [ 35.213981, 31.800531, 0.0 ], [ 35.214115, 31.801024, 0.0 ] ] ] } },
{ "type": "Feature", "properties": { "Name": "" }, "geometry": { "type": "MultiLineString", "coordinates": [ [ [ 35.214422, 31.801293, 0.0 ], [ 35.21445, 31.801351, 0.0 ] ] ] } },
{ "type": "Feature", "properties": { "Name": "" }, "geometry": { "type": "MultiLineString", "coordinates": [ [ [ 35.214465, 31.801372, 0.0 ], [ 35.214482, 31.801411, 0.0 ] ] ] } },
{ "type": "Feature", "properties": { "Name": "" }, "geometry": { "type": "MultiLineString", "coordinates": [ [ [ 35.214471, 31.80145, 0.0 ], [ 35.214451, 31.801517, 0.0 ], [ 35.214537, 31.801704, 0.0 ], [ 35.214612, 31.802179, 0.0 ], [ 35.214596, 31.802354, 0.0 ], [ 35.214585, 31.80261, 0.0 ], [ 35.214541, 31.803193, 0.0 ], [ 35.21454, 31.803613, 0.0 ], [ 35.214645, 31.804002, 0.0 ] ] ] } },
{ "type": "Feature", "properties": { "Name": "" }, "geometry": { "type": "MultiLineString", "coordinates": [ [ [ 35.214693, 31.804092, 0.0 ], [ 35.214387, 31.804207, 0.0 ] ] ] } },
{ "type": "Feature", "properties": { "Name": "" }, "geometry": { "type": "MultiLineString", "coordinates": [ [ [ 35.214365, 31.804259, 0.0 ], [ 35.214432, 31.804363, 0.0 ] ] ] } },
{ "type": "Feature", "properties": { "Name": "" }, "geometry": { "type": "MultiLineString", "coordinates": [ [ [ 35.214443, 31.804459, 0.0 ], [ 35.214409, 31.804531, 0.0 ] ] ] } },
{ "type": "Feature", "properties": { "Name": "" }, "geometry": { "type": "MultiLineString", "coordinates": [ [ [ 35.214455, 31.804725, 0.0 ], [ 35.214428, 31.804778, 0.0 ] ] ] } },
{ "type": "Feature", "properties": { "Name": "" }, "geometry": { "type": "MultiLineString", "coordinates": [ [ [ 35.21441, 31.804524, 0.0 ], [ 35.214551, 31.804595, 0.0 ], [ 35.215404, 31.805516, 0.0 ], [ 35.215925, 31.806128, 0.0 ] ] ] } },
{ "type": "Feature", "properties": { "Name": "" }, "geometry": { "type": "MultiLineString", "coordinates": [ [ [ 35.216296, 31.806345, 0.0 ], [ 35.216382, 31.806667, 0.0 ], [ 35.216355, 31.806867, 0.0 ], [ 35.216296, 31.807024, 0.0 ] ] ] } },
{ "type": "Feature", "properties": { "Name": "" }, "geometry": { "type": "MultiLineString", "coordinates": [ [ [ 35.209112, 31.737747, 0.0 ], [ 35.209277, 31.737537, 0.0 ] ] ] } },
{ "type": "Feature", "properties": { "Name": "" }, "geometry": { "type": "MultiLineString", "coordinates": [ [ [ 35.209465, 31.737284, 0.0 ], [ 35.209558, 31.7372, 0.0 ] ] ] } },
{ "type": "Feature", "properties": { "Name": "" }, "geometry": { "type": "MultiLineString", "coordinates": [ [ [ 35.209558, 31.7372, 0.0 ], [ 35.209584, 31.737185, 0.0 ], [ 35.209765, 31.737208, 0.0 ], [ 35.209833, 31.737199, 0.0 ], [ 35.209935, 31.737158, 0.0 ], [ 35.21035, 31.736929, 0.0 ] ] ] } },
{ "type": "Feature", "properties": { "Name": "" }, "geometry": { "type": "MultiLineString", "coordinates": [ [ [ 35.172107, 31.758923, 0.0 ], [ 35.171229, 31.758942, 0.0 ], [ 35.17002, 31.759442, 0.0 ] ] ] } },
{ "type": "Feature", "properties": { "Name": "" }, "geometry": { "type": "MultiLineString", "coordinates": [ [ [ 35.174599, 31.758004, 0.0 ], [ 35.174818, 31.756903, 0.0 ], [ 35.174845, 31.755357, 0.0 ], [ 35.174866, 31.754432, 0.0 ] ] ] } },
{ "type": "Feature", "properties": { "Name": "" }, "geometry": { "type": "MultiLineString", "coordinates": [ [ [ 35.233988, 31.806562, 0.0 ], [ 35.234109, 31.806579, 0.0 ], [ 35.234172, 31.806589, 0.0 ], [ 35.234181, 31.80668, 0.0 ], [ 35.234379, 31.80674, 0.0 ], [ 35.234302, 31.806959, 0.0 ], [ 35.234387, 31.80694, 0.0 ], [ 35.234471, 31.806946, 0.0 ], [ 35.234563, 31.806987, 0.0 ], [ 35.234662, 31.80714, 0.0 ], [ 35.234762, 31.807305, 0.0 ], [ 35.234909, 31.807592, 0.0 ], [ 35.235011, 31.807741, 0.0 ], [ 35.235313, 31.808011, 0.0 ], [ 35.235445, 31.808085, 0.0 ], [ 35.235661, 31.808578, 0.0 ], [ 35.235891, 31.808881, 0.0 ], [ 35.236148, 31.809162, 0.0 ], [ 35.236518, 31.809456, 0.0 ], [ 35.237145, 31.809906, 0.0 ], [ 35.237562, 31.810461, 0.0 ] ] ] } },
{ "type": "Feature", "properties": { "Name": "" }, "geometry": { "type": "MultiLineString", "coordinates": [ [ [ 35.203038, 31.799501, 0.0 ], [ 35.20264, 31.799375, 0.0 ], [ 35.202261, 31.799275, 0.0 ], [ 35.201892, 31.799277, 0.0 ], [ 35.200901, 31.799337, 0.0 ], [ 35.200436, 31.799381, 0.0 ], [ 35.199918, 31.799342, 0.0 ], [ 35.199181, 31.799063, 0.0 ], [ 35.198578, 31.798731, 0.0 ], [ 35.19808, 31.798342, 0.0 ], [ 35.197449, 31.79758, 0.0 ], [ 35.197235, 31.796872, 0.0 ], [ 35.197159, 31.796136, 0.0 ], [ 35.19724, 31.7958, 0.0 ], [ 35.19746, 31.795097, 0.0 ], [ 35.197972, 31.794021, 0.0 ], [ 35.198236, 31.793088, 0.0 ], [ 35.198217, 31.792063, 0.0 ], [ 35.197814, 31.792027, 0.0 ], [ 35.197759, 31.791833, 0.0 ], [ 35.19802, 31.791343, 0.0 ] ] ] } },
{ "type": "Feature", "properties": { "Name": "" }, "geometry": { "type": "MultiLineString", "coordinates": [ [ [ 35.206183, 31.76562, 0.0 ], [ 35.206182, 31.765627, 0.0 ], [ 35.206147, 31.765688, 0.0 ], [ 35.206125, 31.76585, 0.0 ], [ 35.206117, 31.765931, 0.0 ], [ 35.206119, 31.765983, 0.0 ] ] ] } },
{ "type": "Feature", "properties": { "Name": "" }, "geometry": { "type": "MultiLineString", "coordinates": [ [ [ 35.214693, 31.804092, 0.0 ], [ 35.214387, 31.804207, 0.0 ] ] ] } },
{ "type": "Feature", "properties": { "Name": "" }, "geometry": { "type": "MultiLineString", "coordinates": [ [ [ 35.21433, 31.804197, 0.0 ], [ 35.21429, 31.804175, 0.0 ] ] ] } },
{ "type": "Feature", "properties": { "Name": "" }, "geometry": { "type": "MultiLineString", "coordinates": [ [ [ 35.207988, 31.807736, 0.0 ], [ 35.207974, 31.807737, 0.0 ], [ 35.207839, 31.807744, 0.0 ], [ 35.207822, 31.807746, 0.0 ], [ 35.206613, 31.806613, 0.0 ], [ 35.206241, 31.806114, 0.0 ], [ 35.205372, 31.804947, 0.0 ], [ 35.204869, 31.803331, 0.0 ], [ 35.204869, 31.802284, 0.0 ], [ 35.204869, 31.802195, 0.0 ], [ 35.204764, 31.802118, 0.0 ] ] ] } },
{ "type": "Feature", "properties": { "Name": "" }, "geometry": { "type": "MultiLineString", "coordinates": [ [ [ 35.204764, 31.802118, 0.0 ], [ 35.204715, 31.802083, 0.0 ], [ 35.204792, 31.801343, 0.0 ], [ 35.20432, 31.801106, 0.0 ], [ 35.203901, 31.800678, 0.0 ], [ 35.203554, 31.799942, 0.0 ], [ 35.203437, 31.799773, 0.0 ] ] ] } },
{ "type": "Feature", "properties": { "Name": "" }, "geometry": { "type": "MultiLineString", "coordinates": [ [ [ 35.190383, 31.772043, 0.0 ], [ 35.190425, 31.77202, 0.0 ], [ 35.190481, 31.771878, 0.0 ], [ 35.190653, 31.771463, 0.0 ], [ 35.190833, 31.771067, 0.0 ], [ 35.190983, 31.770706, 0.0 ], [ 35.191329, 31.770051, 0.0 ], [ 35.191907, 31.769478, 0.0 ], [ 35.192128, 31.769314, 0.0 ], [ 35.19226, 31.769314, 0.0 ] ] ] } },
{ "type": "Feature", "properties": { "Name": "" }, "geometry": { "type": "MultiLineString", "coordinates": [ [ [ 35.19302, 31.778279 ], [ 35.191244, 31.778921 ], [ 35.190715, 31.779137 ], [ 35.190714, 31.779138 ] ], [ [ 35.190714, 31.779138 ], [ 35.190564, 31.77906 ], [ 35.190378, 31.779008 ], [ 35.190262, 31.779027 ], [ 35.190169, 31.779079 ] ], [ [ 35.190714, 31.779138 ], [ 35.190575, 31.779345 ], [ 35.190471, 31.779435 ], [ 35.190351, 31.779497 ] ] ] } },
{ "type": "Feature", "properties": { "Name": "" }, "geometry": { "type": "MultiLineString", "coordinates": [ [ [ 35.176522, 31.79068, 0.0 ], [ 35.176347, 31.790622, 0.0 ], [ 35.176077, 31.790616, 0.0 ], [ 35.175767, 31.790617, 0.0 ], [ 35.175723, 31.790625, 0.0 ], [ 35.175431, 31.790589, 0.0 ], [ 35.175056, 31.79051, 0.0 ], [ 35.174758, 31.790414, 0.0 ], [ 35.174477, 31.790282, 0.0 ], [ 35.174271, 31.790182, 0.0 ], [ 35.174232, 31.790178, 0.0 ], [ 35.174039, 31.790059, 0.0 ] ] ] } },
{ "type": "Feature", "properties": { "Name": "" }, "geometry": { "type": "MultiLineString", "coordinates": [ [ [ 35.173518, 31.789788, 0.0 ], [ 35.173387, 31.789735, 0.0 ], [ 35.173145, 31.789608, 0.0 ], [ 35.17281, 31.789369, 0.0 ], [ 35.172686, 31.789253, 0.0 ], [ 35.1725, 31.789023, 0.0 ], [ 35.172489, 31.788968, 0.0 ], [ 35.172486, 31.788965, 0.0 ] ] ] } },
{ "type": "Feature", "properties": { "Name": "" }, "geometry": { "type": "MultiLineString", "coordinates": [ [ [ 35.172402, 31.788858, 0.0 ], [ 35.172362, 31.788826, 0.0 ], [ 35.17232, 31.788797, 0.0 ], [ 35.172276, 31.788703, 0.0 ], [ 35.172238, 31.788576, 0.0 ], [ 35.172221, 31.788477, 0.0 ], [ 35.172216, 31.788376, 0.0 ], [ 35.172226, 31.788205, 0.0 ], [ 35.172271, 31.788082, 0.0 ], [ 35.172301, 31.788064, 0.0 ], [ 35.172329, 31.787998, 0.0 ], [ 35.172313, 31.787983, 0.0 ], [ 35.172432, 31.787795, 0.0 ], [ 35.172568, 31.787653, 0.0 ], [ 35.172868, 31.787417, 0.0 ], [ 35.173268, 31.787144, 0.0 ], [ 35.173677, 31.786843, 0.0 ], [ 35.173903, 31.786609, 0.0 ], [ 35.173908, 31.786603, 0.0 ] ] ] } },
{ "type": "Feature", "properties": { "Name": "" }, "geometry": { "type": "MultiLineString", "coordinates": [ [ [ 35.173976, 31.786474, 0.0 ], [ 35.174064, 31.786245, 0.0 ], [ 35.174129, 31.786055, 0.0 ], [ 35.174148, 31.785808, 0.0 ], [ 35.17419, 31.785776, 0.0 ], [ 35.174184, 31.785743, 0.0 ] ] ] } },
{ "type": "Feature", "properties": { "Name": "" }, "geometry": { "type": "MultiLineString", "coordinates": [ [ [ 35.173672, 31.78322, 0.0 ], [ 35.17368, 31.783204, 0.0 ], [ 35.173858, 31.782766, 0.0 ], [ 35.174135, 31.782039, 0.0 ], [ 35.174193, 31.781853, 0.0 ], [ 35.174186, 31.781353, 0.0 ] ] ] } },
{ "type": "Feature", "properties": { "Name": "" }, "geometry": { "type": "MultiLineString", "coordinates": [ [ [ 35.173623, 31.783325, 0.0 ], [ 35.173672, 31.78322, 0.0 ] ] ] } },
{ "type": "Feature", "properties": { "Name": "" }, "geometry": { "type": "MultiLineString", "coordinates": [ [ [ 35.166094, 31.795586, 0.0 ], [ 35.16627, 31.795997, 0.0 ], [ 35.166598, 31.796197, 0.0 ], [ 35.167394, 31.796357, 0.0 ], [ 35.168191, 31.796597, 0.0 ], [ 35.168694, 31.796788, 0.0 ], [ 35.168682, 31.796778, 0.0 ] ] ] } },
{ "type": "Feature", "properties": { "Name": "" }, "geometry": { "type": "MultiLineString", "coordinates": [ [ [ 35.231194, 31.751509, 0.0 ], [ 35.231196, 31.751831, 0.0 ], [ 35.231199, 31.752083, 0.0 ], [ 35.231245, 31.752253, 0.0 ], [ 35.231531, 31.752758, 0.0 ], [ 35.231739, 31.753105, 0.0 ], [ 35.231826, 31.753256, 0.0 ] ] ] } },
{ "type": "Feature", "properties": { "Name": "" }, "geometry": { "type": "MultiLineString", "coordinates": [ [ [ 35.237553, 31.810483, 0.0 ], [ 35.238392, 31.811692, 0.0 ], [ 35.238599, 31.812954, 0.0 ], [ 35.238409, 31.813825, 0.0 ], [ 35.23809, 31.814498, 0.0 ] ] ] } },
{ "type": "Feature", "properties": { "Name": "" }, "geometry": { "type": "MultiLineString", "coordinates": [ [ [ 35.194965, 31.736871, 0.0 ], [ 35.195777, 31.736431, 0.0 ] ] ] } },
{ "type": "Feature", "properties": { "Name": "" }, "geometry": { "type": "MultiLineString", "coordinates": [ [ [ 35.187943, 31.776045, 0.0 ], [ 35.187836, 31.776664, 0.0 ] ] ] } }
]
}
