{
"type": "FeatureCollection",
"name": "wishing",
"crs": { "type": "name", "properties": { "name": "urn:ogc:def:crs:OGC:1.3:CRS84" } },
"features": [
{ "type": "Feature", "properties": { "Name": "האר״י-מטודלה", "lane_id": 0 }, "geometry": { "type": "LineString", "coordinates": [ [ 35.2129516, 31.7694575, 0.0 ], [ 35.2133057, 31.7709899, 0.0 ], [ 35.2138206, 31.7718382, 0.0 ], [ 35.213653, 31.772118, 0.0 ], [ 35.2134344, 31.7723125, 0.0 ], [ 35.212873, 31.772316, 0.0 ], [ 35.212205, 31.772109, 0.0 ], [ 35.211724, 31.77173, 0.0 ], [ 35.21127, 31.771478, 0.0 ], [ 35.2104947, 31.771446, 0.0 ], [ 35.209735, 31.771657, 0.0 ], [ 35.2095076, 31.7720844, 0.0 ], [ 35.2096471, 31.7724949, 0.0 ], [ 35.2097759, 31.7726773, 0.0 ], [ 35.209918, 31.77293, 0.0 ] ] } },
{ "type": "Feature", "properties": { "Name": "אגרון-רמב״ן‎", "lane_id": 1 }, "geometry": { "type": "LineString", "coordinates": [ [ 35.22266, 31.777855, 0.0 ], [ 35.222051, 31.777832, 0.0 ], [ 35.221382, 31.777574, 0.0 ], [ 35.220884, 31.777244, 0.0 ], [ 35.218599, 31.775993, 0.0 ], [ 35.2177781, 31.7754168, 0.0 ], [ 35.217165, 31.775084, 0.0 ], [ 35.215232, 31.774712, 0.0 ] ] } },
{ "type": "Feature", "properties": { "Name": "קרן היסוד-קינג ג׳ורג׳", "lane_id": 2 }, "geometry": { "type": "LineString", "coordinates": [ [ 35.223095, 31.771548, 0.0 ], [ 35.219729, 31.773427, 0.0 ], [ 35.2181619, 31.7747687, 0.0 ], [ 35.217895, 31.775249, 0.0 ], [ 35.216752, 31.776417, 0.0 ], [ 35.21586, 31.777959, 0.0 ], [ 35.2157752, 31.77854, 0.0 ], [ 35.2157162, 31.7793563, 0.0 ], [ 35.2157108, 31.7803732, 0.0 ], [ 35.216128, 31.781094, 0.0 ], [ 35.217807, 31.783177, 0.0 ] ] } },
{ "type": "Feature", "properties": { "Name": "דרך חברון", "lane_id": 3 }, "geometry": { "type": "LineString", "coordinates": [ [ 35.2024364, 31.7320743, 0.0 ], [ 35.2043775, 31.7318834, 0.0 ], [ 35.2059752, 31.7313823, 0.0 ], [ 35.207454, 31.732862, 0.0 ], [ 35.209096, 31.73404, 0.0 ], [ 35.2114227, 31.7377685, 0.0 ], [ 35.214143, 31.74257, 0.0 ], [ 35.216428, 31.745084, 0.0 ], [ 35.218431, 31.749213, 0.0 ], [ 35.2195766, 31.7517826, 0.0 ], [ 35.221861, 31.756267, 0.0 ], [ 35.2246, 31.760863, 0.0 ], [ 35.2253702, 31.7632041, 0.0 ], [ 35.2254131, 31.7654298, 0.0 ], [ 35.2255847, 31.7665609, 0.0 ], [ 35.226443, 31.7680933, 0.0 ], [ 35.2260568, 31.768969, 0.0 ], [ 35.225246, 31.769831, 0.0 ] ] } },
{ "type": "Feature", "properties": { "Name": "ז׳בוטינסקי", "lane_id": 4 }, "geometry": { "type": "LineString", "coordinates": [ [ 35.223095, 31.771548, 0.0 ], [ 35.2220827, 31.771263, 0.0 ], [ 35.221324, 31.770976, 0.0 ], [ 35.220478, 31.771051, 0.0 ], [ 35.217292, 31.771094, 0.0 ], [ 35.216373, 31.771097, 0.0 ], [ 35.216045, 31.771028, 0.0 ], [ 35.214768, 31.770555, 0.0 ], [ 35.214262, 31.770391, 0.0 ], [ 35.213118, 31.76935, 0.0 ], [ 35.2129516, 31.7694575, 0.0 ] ] } },
{ "type": "Feature", "properties": { "Name": "ג׳ורג׳ אדם סמית׳ - לח״י‎‎", "lane_id": 5 }, "geometry": { "type": "LineString", "coordinates": [ [ 35.23334, 31.8004614, 0.0 ], [ 35.236096, 31.799502, 0.0 ], [ 35.2359957, 31.7991352, 0.0 ], [ 35.2362103, 31.7987157, 0.0 ], [ 35.2367896, 31.7983054, 0.0 ], [ 35.2373582, 31.7979953, 0.0 ], [ 35.2378732, 31.7985333, 0.0 ] ] } },
{ "type": "Feature", "properties": { "Name": "הרצל‎", "lane_id": 6 }, "geometry": { "type": "LineString", "coordinates": [ [ 35.198178, 31.785856, 0.0 ], [ 35.1960257, 31.7839363, 0.0 ], [ 35.195756, 31.783642, 0.0 ], [ 35.1948025, 31.7832427, 0.0 ], [ 35.1925923, 31.7827046, 0.0 ], [ 35.191034, 31.782763, 0.0 ], [ 35.190148, 31.782741, 0.0 ], [ 35.18968, 31.782415, 0.0 ], [ 35.189382, 31.78221, 0.0 ], [ 35.188033, 31.780127, 0.0 ], [ 35.187508, 31.779505, 0.0 ], [ 35.1871045, 31.7789471, 0.0 ], [ 35.1867451, 31.7785458, 0.0 ], [ 35.185565, 31.7773875, 0.0 ], [ 35.1849856, 31.7768038, 0.0 ], [ 35.1843955, 31.7761197, 0.0 ], [ 35.1833548, 31.7746695, 0.0 ], [ 35.1821639, 31.7726447, 0.0 ], [ 35.1813485, 31.7709572, 0.0 ], [ 35.1808979, 31.7699448, 0.0 ], [ 35.1804473, 31.7694066, 0.0 ], [ 35.179678, 31.768867, 0.0 ], [ 35.178747, 31.768528, 0.0 ], [ 35.1781299, 31.7686131, 0.0 ] ] } },
{ "type": "Feature", "properties": { "Name": "בן זכאי-יהודה הנשיא", "lane_id": 7 }, "geometry": { "type": "LineString", "coordinates": [ [ 35.215135, 31.759318, 0.0 ], [ 35.2147725, 31.7591967, 0.0 ], [ 35.2142039, 31.7589686, 0.0 ], [ 35.212097, 31.759281, 0.0 ], [ 35.209051, 31.759031, 0.0 ], [ 35.207944, 31.75876, 0.0 ], [ 35.2067688, 31.7578648, 0.0 ], [ 35.204507, 31.755793, 0.0 ], [ 35.203937, 31.755347, 0.0 ], [ 35.203143, 31.755177, 0.0 ], [ 35.2022412, 31.7552831, 0.0 ], [ 35.200768, 31.756135, 0.0 ], [ 35.200012, 31.756347, 0.0 ], [ 35.199406, 31.756257, 0.0 ], [ 35.198586, 31.75592, 0.0 ] ] } },
{ "type": "Feature", "properties": { "Name": "רחל אמנו-חזקיהו המלך-דוסטאי", "lane_id": 8 }, "geometry": { "type": "LineString", "coordinates": [ [ 35.218727, 31.763165, 0.0 ], [ 35.2169998, 31.7634294, 0.0 ], [ 35.2157338, 31.7636118, 0.0 ], [ 35.2149828, 31.7636301, 0.0 ], [ 35.213073, 31.7626996, 0.0 ], [ 35.2124722, 31.7625172, 0.0 ], [ 35.2106054, 31.7616597, 0.0 ], [ 35.2092321, 31.7613131, 0.0 ], [ 35.208288, 31.7596346, 0.0 ], [ 35.2079661, 31.759142, 0.0 ], [ 35.208148, 31.758832, 0.0 ] ] } },
{ "type": "Feature", "properties": { "Name": "בר לב", "lane_id": 9 }, "geometry": { "type": "LineString", "coordinates": [ [ 35.222817, 31.777727, 0.0 ], [ 35.223249, 31.77829, 0.0 ], [ 35.225199, 31.778896, 0.0 ], [ 35.225658, 31.77926, 0.0 ], [ 35.227666, 31.780275, 0.0 ], [ 35.228114, 31.7814, 0.0 ], [ 35.2275947, 31.7826526, 0.0 ], [ 35.227189, 31.783159, 0.0 ], [ 35.2273587, 31.7848232, 0.0 ], [ 35.226688, 31.788527, 0.0 ], [ 35.226599, 31.792872, 0.0 ], [ 35.2265433, 31.7938332, 0.0 ], [ 35.2283887, 31.7956387, 0.0 ], [ 35.232317, 31.798925, 0.0 ], [ 35.2336672, 31.8012557, 0.0 ], [ 35.2345256, 31.8030064, 0.0 ], [ 35.235064, 31.804728, 0.0 ], [ 35.2355984, 31.8081124, 0.0 ] ] } },
{ "type": "Feature", "properties": { "Name": "צבי יהודה", "lane_id": 10 }, "geometry": { "type": "LineString", "coordinates": [ [ 35.1988179, 31.7867448, 0.0 ], [ 35.1976592, 31.7871734, 0.0 ], [ 35.196799, 31.787474, 0.0 ], [ 35.1961357, 31.7875473, 0.0 ], [ 35.195122, 31.787616, 0.0 ], [ 35.1928312, 31.7875382, 0.0 ] ] } },
{ "type": "Feature", "properties": { "Name": "הברון הירש-אליעזר הלוי", "lane_id": 11 }, "geometry": { "type": "LineString", "coordinates": [ [ 35.1948025, 31.7832427, 0.0 ], [ 35.194681, 31.7835407, 0.0 ], [ 35.1942196, 31.7838599, 0.0 ], [ 35.1933506, 31.7846533, 0.0 ], [ 35.1932755, 31.7847901, 0.0 ], [ 35.1933828, 31.785693, 0.0 ], [ 35.1936243, 31.7865383, 0.0 ], [ 35.193796, 31.7870399, 0.0 ], [ 35.1930342, 31.7873499, 0.0 ], [ 35.1928312, 31.7875382, 0.0 ] ] } },
{ "type": "Feature", "properties": { "Name": "אלעזר המודעי-כובשי קטמון", "lane_id": 12 }, "geometry": { "type": "LineString", "coordinates": [ [ 35.210085, 31.767079, 0.0 ], [ 35.2103631, 31.7664943, 0.0 ], [ 35.210612, 31.766075, 0.0 ], [ 35.211847, 31.764821, 0.0 ], [ 35.21238, 31.763963, 0.0 ], [ 35.213137, 31.762874, 0.0 ], [ 35.214386, 31.761293, 0.0 ], [ 35.215135, 31.759318, 0.0 ], [ 35.215297, 31.759248, 0.0 ] ] } },
{ "type": "Feature", "properties": { "Name": "הפלמ״ח", "lane_id": 13 }, "geometry": { "type": "LineString", "coordinates": [ [ 35.213706, 31.7686717, 0.0 ], [ 35.212222, 31.767702, 0.0 ], [ 35.2113134, 31.76734, 0.0 ], [ 35.2097256, 31.7669204, 0.0 ], [ 35.2089209, 31.7661451, 0.0 ], [ 35.208022, 31.764751, 0.0 ], [ 35.2070004, 31.7641474, 0.0 ], [ 35.204532, 31.763531, 0.0 ] ] } },
{ "type": "Feature", "properties": { "Name": "בזק-בייט", "lane_id": 14 }, "geometry": { "type": "LineString", "coordinates": [ [ 35.202938, 31.767052, 0.0 ], [ 35.202062, 31.766124, 0.0 ], [ 35.2005231, 31.7657463, 0.0 ], [ 35.198968, 31.765673, 0.0 ], [ 35.1905882, 31.7679903, 0.0 ], [ 35.1892364, 31.7712192, 0.0 ], [ 35.1878845, 31.7726421, 0.0 ], [ 35.186305, 31.774112, 0.0 ], [ 35.184362, 31.775882, 0.0 ] ] } },
{ "type": "Feature", "properties": { "Name": "ירמיהו-בר אילן-לוי אשכול", "lane_id": 15 }, "geometry": { "type": "LineString", "coordinates": [ [ 35.23281, 31.799729, 0.0 ], [ 35.2317547, 31.7999716, 0.0 ], [ 35.2297377, 31.800081, 0.0 ], [ 35.227692, 31.800213, 0.0 ], [ 35.224934, 31.799308, 0.0 ], [ 35.223587, 31.79866, 0.0 ], [ 35.222851, 31.797886, 0.0 ], [ 35.222039, 31.796498, 0.0 ], [ 35.219864, 31.795715, 0.0 ], [ 35.216893, 31.794214, 0.0 ], [ 35.214291, 31.793329, 0.0 ], [ 35.213061, 31.792605, 0.0 ], [ 35.211895, 31.792227, 0.0 ], [ 35.210916, 31.792197, 0.0 ], [ 35.2088809, 31.7925307, 0.0 ], [ 35.2076792, 31.7922754, 0.0 ], [ 35.2063918, 31.7918377, 0.0 ], [ 35.2043747, 31.7924578, 0.0 ], [ 35.2038168, 31.7919836, 0.0 ], [ 35.2031731, 31.7911081, 0.0 ], [ 35.2024865, 31.7908893, 0.0 ], [ 35.2012419, 31.7908528, 0.0 ], [ 35.2005553, 31.7902327, 0.0 ], [ 35.1998257, 31.7893937, 0.0 ] ] } },
{ "type": "Feature", "properties": { "Name": "גולדה-שמואל הנביא", "lane_id": 16 }, "geometry": { "type": "LineString", "coordinates": [ [ 35.204747, 31.802203, 0.0 ], [ 35.207461, 31.8004754, 0.0 ], [ 35.2099072, 31.7995271, 0.0 ], [ 35.2126538, 31.799673, 0.0 ], [ 35.214085, 31.800182, 0.0 ], [ 35.215873, 31.799776, 0.0 ], [ 35.2173315, 31.7984329, 0.0 ], [ 35.219864, 31.795715, 0.0 ], [ 35.221775, 31.793625, 0.0 ], [ 35.223149, 31.792683, 0.0 ], [ 35.2250992, 31.7898975, 0.0 ], [ 35.227002, 31.787171, 0.0 ] ] } },
{ "type": "Feature", "properties": { "Name": "שטראוס-יחזקאל", "lane_id": 17 }, "geometry": { "type": "LineString", "coordinates": [ [ 35.217807, 31.783177, 0.0 ], [ 35.2186128, 31.7841809, 0.0 ], [ 35.2189346, 31.78533, 0.0 ], [ 35.218999, 31.7860231, 0.0 ], [ 35.2185913, 31.7878288, 0.0 ], [ 35.218434, 31.78818, 0.0 ], [ 35.218647, 31.789571, 0.0 ], [ 35.2188703, 31.7899263, 0.0 ], [ 35.2213164, 31.7929174, 0.0 ], [ 35.221775, 31.793625, 0.0 ] ] } },
{ "type": "Feature", "properties": { "Name": "בגין (גבעת רם)", "lane_id": 18 }, "geometry": { "type": "LineString", "coordinates": [ [ 35.197846, 31.781807, 0.0 ], [ 35.196668, 31.781404, 0.0 ], [ 35.195056, 31.779467, 0.0 ], [ 35.194463, 31.778333, 0.0 ], [ 35.194241, 31.777577, 0.0 ], [ 35.1941091, 31.7764328, 0.0 ], [ 35.1940877, 31.7755845, 0.0 ], [ 35.1943881, 31.773879, 0.0 ], [ 35.1945275, 31.7729851, 0.0 ], [ 35.195168, 31.770188, 0.0 ], [ 35.195371, 31.768597, 0.0 ], [ 35.1958257, 31.7678498, 0.0 ], [ 35.1960081, 31.7675579, 0.0 ], [ 35.1959223, 31.7664725, 0.0 ] ] } },
{ "type": "Feature", "properties": { "Name": "גולומב", "lane_id": 19 }, "geometry": { "type": "LineString", "coordinates": [ [ 35.183692, 31.756121, 0.0 ], [ 35.1769996, 31.7617482, 0.0 ], [ 35.1762701, 31.761876, 0.0 ], [ 35.1757765, 31.7616023, 0.0 ], [ 35.1753688, 31.7613651, 0.0 ], [ 35.174523, 31.761218, 0.0 ], [ 35.1735879, 31.7614563, 0.0 ], [ 35.172505, 31.761819, 0.0 ], [ 35.172291, 31.762083, 0.0 ] ] } },
{ "type": "Feature", "properties": { "Name": "קוליץ", "lane_id": 20 }, "geometry": { "type": "LineString", "coordinates": [ [ 35.18318, 31.756519, 0.0 ], [ 35.182025, 31.7562018, 0.0 ], [ 35.181553, 31.755545, 0.0 ], [ 35.1793428, 31.7514032, 0.0 ], [ 35.178255, 31.750591, 0.0 ] ] } },
{ "type": "Feature", "properties": { "Name": "פייר קניג", "lane_id": 21 }, "geometry": { "type": "LineString", "coordinates": [ [ 35.215297, 31.759248, 0.0 ], [ 35.2148212, 31.7567295, 0.0 ], [ 35.2143706, 31.7545035, 0.0 ], [ 35.2140702, 31.7530438, 0.0 ], [ 35.2138127, 31.7516571, 0.0 ], [ 35.213683, 31.750748, 0.0 ], [ 35.213514, 31.750148, 0.0 ], [ 35.212975, 31.748422, 0.0 ], [ 35.2128042, 31.7475151, 0.0 ], [ 35.2125467, 31.7473327, 0.0 ], [ 35.212663, 31.746741, 0.0 ] ] } },
{ "type": "Feature", "properties": { "Name": "שמגר-אוהל יהושוע-שפע חיים", "lane_id": 22 }, "geometry": { "type": "LineString", "coordinates": [ [ 35.205289, 31.788621, 0.0 ], [ 35.206334, 31.789399, 0.0 ], [ 35.208286, 31.790945, 0.0 ], [ 35.208625, 31.791643, 0.0 ], [ 35.208513, 31.792451, 0.0 ], [ 35.208297, 31.794146, 0.0 ], [ 35.207556, 31.795818, 0.0 ], [ 35.2081204, 31.7959526, 0.0 ], [ 35.209202, 31.795933, 0.0 ], [ 35.211909, 31.795728, 0.0 ], [ 35.212144, 31.795921, 0.0 ], [ 35.213593, 31.799928, 0.0 ], [ 35.213645, 31.800098, 0.0 ] ] } },
{ "type": "Feature", "properties": { "Name": "בצלאל-רבין", "lane_id": 23 }, "geometry": { "type": "LineString", "coordinates": [ [ 35.216128, 31.781094, 0.0 ], [ 35.2148014, 31.7808507, 0.0 ], [ 35.2138573, 31.7807048, 0.0 ], [ 35.2108317, 31.7817992, 0.0 ], [ 35.2087718, 31.7829301, 0.0 ], [ 35.2076345, 31.7829666, 0.0 ], [ 35.2063256, 31.7827659, 0.0 ], [ 35.2044374, 31.7821093, 0.0 ], [ 35.2036005, 31.7820546, 0.0 ], [ 35.202592, 31.7824194, 0.0 ], [ 35.198178, 31.785856, 0.0 ] ] } }
]
}
